<?xml version="1.0" encoding="UTF-8"?>
<kml xmlns="http://www.opengis.net/kml/2.2" xmlns:gx="http://www.google.com/kml/ext/2.2">
    <Document id="1">
        <Style id="312">
            <IconStyle id="313">
                <colorMode>normal</colorMode>
                <scale>1</scale>
                <heading>0</heading>
                <Icon id="314">
                    <href>http://maps.google.com/mapfiles/kml/shapes/placemark_circle.png</href>
                </Icon>
            </IconStyle>
        </Style>
        <Style id="317">
            <LineStyle id="318">
                <color>ffffffff</color>
                <colorMode>normal</colorMode>
                <width>5</width>
            </LineStyle>
        </Style>
        <Style id="321">
            <LineStyle id="322">
                <color>ff00ffff</color>
                <colorMode>normal</colorMode>
                <width>4</width>
            </LineStyle>
        </Style>
        <Folder id="8">
            <Style id="2">
                <LineStyle id="3">
                    <color>ff0000ff</color>
                    <colorMode>normal</colorMode>
                    <width>2</width>
                </LineStyle>
                <PolyStyle id="4">
                    <color>280000ff</color>
                    <colorMode>normal</colorMode>
                    <fill>1</fill>
                    <outline>1</outline>
                </PolyStyle>
            </Style>
            <name>RH = 11.2m (RH11.2m_az112_typical)</name>
            <Placemark id="10">
                <name>AZ 20 EL 5.0 [IN CURRENT MASK]</name>
                <styleUrl>#2</styleUrl>
                <Polygon id="9">
                    <outerBoundaryIs>
                        <LinearRing id="13">
                            <coordinates>-69.96250299375548,41.89450078535513,0.0 -69.9625260294521,41.894488099696915,0.0 -69.96256383951221,41.89444285298917,0.0 -69.96261384716084,41.89436812870732,0.0 -69.96267264436156,41.89426901917431,0.0 -69.96273622409474,41.89415227853088,0.0 -69.96280025345276,41.89402586245473,0.0 -69.96286036893497,41.893898385995364,0.0 -69.96291247381454,41.89377853647193,0.0 -69.96295301731189,41.893674481444364,0.0 -69.96297923655248,41.89359331210418,0.0 -69.96298934482597,41.89354056001792,0.0 -69.9629826533241,41.89351982015733,0.0 -69.96295961806739,41.8935325059068,0.0 -69.96292180882655,41.89357775274434,0.0 -69.96287180215703,41.893652477159804,0.0 -69.96281300583291,41.89375158679441,0.0 -69.96274942663894,41.89386832748018,0.0 -69.96268539733825,41.89399474352809,0.0 -69.96262528141614,41.89412221989622,0.0 -69.9625731757173,41.89424206928984,0.0 -69.96253263124083,41.8943461241838,0.0 -69.96250641112363,41.89442729342238,0.0 -69.96249630231092,41.894480045466295,0.0 -69.96250299375548,41.89450078535513,0.0</coordinates>
                        </LinearRing>
                    </outerBoundaryIs>
                </Polygon>
            </Placemark>
            <Placemark id="16">
                <name>AZ 25 EL 5.0 [IN CURRENT MASK]</name>
                <styleUrl>#2</styleUrl>
                <Polygon id="15">
                    <outerBoundaryIs>
                        <LinearRing id="19">
                            <coordinates>-69.96230982507957,41.894441223736635,0.0 -69.96233425843852,41.894430080870066,0.0 -69.96237722244754,41.8943874594002,0.0 -69.96243578908782,41.894316263891085,0.0 -69.96250596702482,41.89422134617876,0.0 -69.96258297364196,41.894109174731994,0.0 -69.96266156099638,41.893987393841286,0.0 -69.96273637347622,41.89386430267527,0.0 -69.96280231278023,41.893748289705535,0.0 -69.96285488534643,41.893647261042894,0.0 -69.96289050855607,41.893568101644014,0.0 -69.96290675485244,41.89351620610756,0.0 -69.96290251714645,41.89349511103684,0.0 -69.9628780842443,41.893506254023855,0.0 -69.96283512116224,41.893548875680416,0.0 -69.96277655567076,41.89362007139243,0.0 -69.96270637879653,41.89371498926948,0.0 -69.96262937287138,41.893827160798686,0.0 -69.96255078565272,41.89394894166745,0.0 -69.96247597271609,41.89407203271302,0.0 -69.9624100324851,41.89418804549607,0.0 -69.96235745877011,41.89428907395581,0.0 -69.96232183449771,41.89436823318996,0.0 -69.96230558750935,41.89442012864396,0.0 -69.96230982507957,41.894441223736635,0.0</coordinates>
                        </LinearRing>
                    </outerBoundaryIs>
                </Polygon>
            </Placemark>
            <Placemark id="22">
                <name>AZ 30 EL 5.0 [IN CURRENT MASK]</name>
                <styleUrl>#2</styleUrl>
                <Polygon id="21">
                    <outerBoundaryIs>
                        <LinearRing id="25">
                            <coordinates>-69.96212436568315,41.89436935632844,0.0 -69.96215001073381,41.89435984106013,0.0 -69.96219780167073,41.894320169216556,0.0 -69.96226448151998,41.89425304434335,0.0 -69.96234550603181,41.89416304086149,0.0 -69.96243535339809,41.89405629233567,0.0 -69.962527900587,41.893940073488345,0.0 -69.96261684063957,41.89382230444297,0.0 -69.96269611248412,41.89371101098038,0.0 -69.96276031397602,41.893613777591064,0.0 -69.96280507001791,41.89353723059801,0.0 -69.96282733068105,41.893486586576145,0.0 -69.9628255790203,41.89346529684506,0.0 -69.96279993442946,41.89347481226365,0.0 -69.96275214449906,41.89351448435688,0.0 -69.96268546593335,41.89358160951219,0.0 -69.96260444263815,41.893671613233,0.0 -69.9625145960956,41.89377836189062,0.0 -69.96242204911681,41.893894580727256,0.0 -69.96233310860443,41.894012349622336,0.0 -69.96225383575334,41.8941236428353,0.0 -69.9621896329779,41.89422087594251,0.0 -69.96214487571937,41.894297422696596,0.0 -69.96212261423251,41.894348066586666,0.0 -69.96212436568315,41.89436935632844,0.0</coordinates>
                        </LinearRing>
                    </outerBoundaryIs>
                </Polygon>
            </Placemark>
            <Placemark id="28">
                <name>AZ 35 EL 5.0 [IN CURRENT MASK]</name>
                <styleUrl>#2</styleUrl>
                <Polygon id="27">
                    <outerBoundaryIs>
                        <LinearRing id="31">
                            <coordinates>-69.96194802710042,41.89428573012541,0.0 -69.96197468865034,41.8942779148738,0.0 -69.96202694275519,41.8942414945939,0.0 -69.96210122827863,41.89417895123596,0.0 -69.96219248264718,41.89409454698961,0.0 -69.96229448689324,41.893994033832605,0.0 -69.96240028950305,41.8938842615516,0.0 -69.96250268017582,41.89377271094562,0.0 -69.96259468120124,41.8936669840221,0.0 -69.96267002296692,41.89357428592779,0.0 -69.96272357119385,41.89350093392147,0.0 -69.96275167679204,41.89345192685333,0.0 -69.96275242450439,41.893430604492934,0.0 -69.96272576340331,41.89343841992442,0.0 -69.96267351035395,41.89347484052112,0.0 -69.96259922620982,41.89353738424788,0.0 -69.9625079731748,41.89362178881622,0.0 -69.96240596985918,41.89372230216215,0.0 -69.96230016752743,41.89383207444836,0.0 -69.96219777640582,41.89394362487446,0.0 -69.9621057743249,41.89404935148119,0.0 -69.96203043117991,41.8941420492067,0.0 -69.96197688161946,41.894215400891014,0.0 -69.96194877509082,41.894264407770244,0.0 -69.96194802710042,41.89428573012541,0.0</coordinates>
                        </LinearRing>
                    </outerBoundaryIs>
                </Polygon>
            </Placemark>
            <Placemark id="34">
                <name>AZ 40 EL 5.0 [IN CURRENT MASK]</name>
                <styleUrl>#2</styleUrl>
                <Polygon id="33">
                    <outerBoundaryIs>
                        <LinearRing id="37">
                            <coordinates>-69.96178215143061,41.89419098161831,0.0 -69.96180962655167,41.894184925862476,0.0 -69.96186594609524,41.89415203433447,0.0 -69.96194727187039,41.894094548498984,0.0 -69.96204806151674,41.894016385874714,0.0 -69.96216144624563,41.89392287307426,0.0 -69.96227969897434,41.89382038281523,0.0 -69.96239476094115,41.89371589963689,0.0 -69.96249879090553,41.893616543915996,0.0 -69.96258469950446,41.893529086619296,0.0 -69.96264663235208,41.89345948786302,0.0 -69.96268036896801,41.89341249072849,0.0 -69.96268361035841,41.89339129801794,0.0 -69.9626561356616,41.893397353982074,0.0 -69.9625998171904,41.89343024589617,0.0 -69.9625184928484,41.89348773219204,0.0 -69.96241770461195,41.89356589522763,0.0 -69.96230432089197,41.89365940828018,0.0 -69.96218606850078,41.893761898564456,0.0 -69.96207100610974,41.89386638153448,0.0 -69.96196697507298,41.893965736869305,0.0 -69.9618810650409,41.89405319370561,0.0 -69.96181913078337,41.894122792050545,0.0 -69.96178539315855,41.894169788933006,0.0 -69.96178215143061,41.89419098161831,0.0</coordinates>
                        </LinearRing>
                    </outerBoundaryIs>
                </Polygon>
            </Placemark>
            <Placemark id="40">
                <name>AZ 45 EL 5.0 [IN CURRENT MASK]</name>
                <styleUrl>#2</styleUrl>
                <Polygon id="39">
                    <outerBoundaryIs>
                        <LinearRing id="43">
                            <coordinates>-69.96162800112214,41.89408583194822,0.0 -69.9616560806954,41.89408158177534,0.0 -69.96171603700756,41.894052469328635,0.0 -69.96180378402947,41.8940004785277,0.0 -69.96191334180237,41.8939291524044,0.0 -69.96203724400091,41.893843351665744,0.0 -69.96216704678945,41.8937489234584,0.0 -69.96229390428381,41.89365230290378,0.0 -69.96240917139404,41.89356007455645,0.0 -69.96250499296264,41.89347852367135,0.0 -69.96257483905224,41.8934132078619,0.0 -69.96261394991147,41.89336857834292,0.0 -69.96261966030546,41.89334767657431,0.0 -69.96259158111897,41.8933519269819,0.0 -69.96253162586348,41.89338103988403,0.0 -69.96244388028501,41.893433031239006,0.0 -69.96233432395556,41.89350435786656,0.0 -69.9622104228137,41.893590158924546,0.0 -69.96208062041194,41.89368458718073,0.0 -69.96195376253081,41.89378120750062,0.0 -69.96183849436392,41.893873435392564,0.0 -69.96174267135189,41.8939549857236,0.0 -69.96167282381883,41.8940203010288,0.0 -69.9616337119029,41.894064930228446,0.0 -69.96162800112214,41.89408583194822,0.0</coordinates>
                        </LinearRing>
                    </outerBoundaryIs>
                </Polygon>
            </Placemark>
            <Placemark id="46">
                <name>AZ 50 EL 5.0 [IN CURRENT MASK]</name>
                <styleUrl>#2</styleUrl>
                <Polygon id="45">
                    <outerBoundaryIs>
                        <LinearRing id="49">
                            <coordinates>-69.96148674936347,41.89397108141689,0.0 -69.96151521967128,41.89396866917153,0.0 -69.96157835640474,41.89394355737156,0.0 -69.961671856799,41.893897457292425,0.0 -69.96178934881587,41.89383351051373,0.0 -69.96192282542538,41.893756074843026,0.0 -69.96206319031006,41.89367042735445,0.0 -69.96220087779258,41.89358240477534,0.0 -69.96232650473229,41.89349800572476,0.0 -69.96243150996163,41.89342298191076,0.0 -69.9625087376886,41.893362446146924,0.0 -69.96255292511438,41.89332052390523,0.0 -69.96256106104609,41.89330007215602,0.0 -69.9625325910758,41.89330248465971,0.0 -69.96246945535121,41.89332759698235,0.0 -69.96237595636683,41.89337369770844,0.0 -69.9622584657831,41.89343764508506,0.0 -69.96212499024594,41.89351508114442,0.0 -69.96198462578552,41.89360072870825,0.0 -69.96184693796548,41.89368875102906,0.0 -69.96172131001691,41.893773149556985,0.0 -69.96161630337768,41.893848172724,0.0 -69.9615390742176,41.89390870788992,0.0 -69.96149488571943,41.893950629742946,0.0 -69.96148674936347,41.89397108141689,0.0</coordinates>
                        </LinearRing>
                    </outerBoundaryIs>
                </Polygon>
            </Placemark>
            <Placemark id="52">
                <name>AZ 55 EL 5.0 [IN CURRENT MASK]</name>
                <styleUrl>#2</styleUrl>
                <Polygon id="51">
                    <outerBoundaryIs>
                        <LinearRing id="55">
                            <coordinates>-69.96135947115421,41.89384760339447,0.0 -69.96138811550715,41.89384704743248,0.0 -69.96145395211185,41.89382612739459,0.0 -69.96155249421956,41.893786268888284,0.0 -69.96167702621527,41.89373018813133,0.0 -69.96181906131149,41.893661706865764,0.0 -69.96196891994568,41.8935854919309,0.0 -69.96211638945475,41.893506737238255,0.0 -69.96225142006313,41.8934308098178,0.0 -69.96236480975094,41.89336288405627,0.0 -69.96244883133159,41.893307589055624,0.0 -69.96249775901096,41.89326869314765,0.0 -69.96250825855404,41.89324884706996,0.0 -69.96247961447912,41.89324940331029,0.0 -69.96241377880482,41.893270323934004,0.0 -69.96231523803058,41.8933101831766,0.0 -69.96219070741414,41.893366264623054,0.0 -69.96204867337337,41.89343474634658,0.0 -69.96189881518804,41.89351096138511,0.0 -69.96175134540094,41.89358971579941,0.0 -69.96161631386217,41.893665642634055,0.0 -69.96150292284086,41.89373356765928,0.0 -69.96141889988097,41.89378886197043,0.0 -69.96136997114613,41.89382775742046,0.0 -69.96135947115421,41.89384760339447,0.0</coordinates>
                        </LinearRing>
                    </outerBoundaryIs>
                </Polygon>
            </Placemark>
            <Placemark id="58">
                <name>AZ 60 EL 5.0 [IN CURRENT MASK]</name>
                <styleUrl>#2</styleUrl>
                <Polygon id="57">
                    <outerBoundaryIs>
                        <LinearRing id="61">
                            <coordinates>-69.96124713512397,41.89371633767097,0.0 -69.96127573551037,41.893717642220054,0.0 -69.96134377089206,41.89370107315517,0.0 -69.96144660468794,41.8936677595665,0.0 -69.96157722882319,41.89361997163817,0.0 -69.96172674135067,41.893560965961,0.0 -69.96188495313815,41.89349476362194,0.0 -69.96204108226785,41.893425876187656,0.0 -69.96218448881858,41.89335899825235,0.0 -69.96230539995317,41.89329868750103,0.0 -69.96239557589915,41.893249054093566,0.0 -69.96244887144307,41.89321348054221,0.0 -69.96246165468222,41.89319439117817,0.0 -69.9624330545059,41.89319308692333,0.0 -69.96236501994787,41.89320965663115,0.0 -69.96226218736857,41.89324297103914,0.0 -69.9621315645168,41.89329075974367,0.0 -69.9619820529958,41.89334976594593,0.0 -69.96182384166812,41.89341596841826,0.0 -69.96166771232834,41.89348485555831,0.0 -69.96152430495394,41.89355173285068,0.0 -69.96140339260279,41.89361204278268,0.0 -69.96131321537332,41.89366167541393,0.0 -69.96125991882292,41.8936972484402,0.0 -69.96124713512397,41.89371633767097,0.0</coordinates>
                        </LinearRing>
                    </outerBoundaryIs>
                </Polygon>
            </Placemark>
            <Placemark id="64">
                <name>AZ 65 EL 5.0 [IN CURRENT MASK]</name>
                <styleUrl>#2</styleUrl>
                <Polygon id="63">
                    <outerBoundaryIs>
                        <LinearRing id="67">
                            <coordinates>-69.96115059616162,41.89357828330268,0.0 -69.96117893490712,41.89358143843026,0.0 -69.96124865124212,41.893569346433445,0.0 -69.96135499404441,41.8935428312927,0.0 -69.96149071612166,41.893503699881755,0.0 -69.9616465681238,41.89345461885616,0.0 -69.96181192890185,41.893398932947946,0.0 -69.96197552934643,41.89334043704344,0.0 -69.96212622037116,41.89328311757238,0.0 -69.96225373270086,41.89323088083117,0.0 -69.96234937668714,41.89318728675664,0.0 -69.96240663446517,41.893155306298404,0.0 -69.96242160410458,41.893137118930554,0.0 -69.96239326549481,41.893133964108486,0.0 -69.96232354985175,41.893146056797576,0.0 -69.96221720811212,41.89317257283189,0.0 -69.96208148718358,41.89321170509821,0.0 -69.96192563610838,41.893260786711856,0.0 -69.9617602757871,41.89331647278319,0.0 -69.96159667520678,41.89337496838218,0.0 -69.96144598349012,41.89343228716097,0.0 -69.96131847009775,41.89348452300864,0.0 -69.96122282496276,41.89352811622776,0.0 -69.96116556625782,41.89356009609796,0.0 -69.96115059616162,41.89357828330268,0.0</coordinates>
                        </LinearRing>
                    </outerBoundaryIs>
                </Polygon>
            </Placemark>
            <Placemark id="70">
                <name>AZ 70 EL 5.0 [IN CURRENT MASK]</name>
                <styleUrl>#2</styleUrl>
                <Polygon id="69">
                    <outerBoundaryIs>
                        <LinearRing id="73">
                            <coordinates>-69.96107058891072,41.89343449100718,0.0 -69.96109845033517,41.893439472696244,0.0 -69.96116931701228,41.8934319497874,0.0 -69.96127835944124,41.893412434881284,0.0 -69.96141814647318,41.89338225779093,0.0 -69.96157915175505,41.893343474942796,0.0 -69.96175040296114,41.89329872925947,0.0 -69.96192022956082,41.893251070066114,0.0 -69.96207705815769,41.89320374528912,0.0 -69.96221020119589,41.89315998010704,0.0 -69.962310585285,41.89312275714024,0.0 -69.962371369513,41.89309461316478,0.0 -69.96238841161707,41.893077466210514,0.0 -69.96236055024993,41.89307248483323,0.0 -69.96228968411195,41.893080008474456,0.0 -69.9621806425595,41.89309952433725,0.0 -69.96204085650659,41.89312970235229,0.0 -69.96187985204392,41.893168485845315,0.0 -69.96170860127772,41.893213231720964,0.0 -69.96153877462075,41.89326089060254,0.0 -69.96138194548475,41.89330821464717,0.0 -69.96124880157002,41.893351978872566,0.0 -69.9611484165019,41.89338920091467,0.0 -69.96108763145467,41.893417344245236,0.0 -69.96107058891072,41.89343449100718,0.0</coordinates>
                        </LinearRing>
                    </outerBoundaryIs>
                </Polygon>
            </Placemark>
            <Placemark id="76">
                <name>AZ 75 EL 5.0 [IN CURRENT MASK]</name>
                <styleUrl>#2</styleUrl>
                <Polygon id="75">
                    <outerBoundaryIs>
                        <LinearRing id="79">
                            <coordinates>-69.9610077221808,41.893286055165646,0.0 -69.96103489423982,41.89329282549769,0.0 -69.96110637189952,41.89328992892158,0.0 -69.96121728403857,41.89327756275805,0.0 -69.96136007211167,41.89325656964013,0.0 -69.96152500526973,41.89322838011601,0.0 -69.96170084352201,41.893194915185845,0.0 -69.96187560374126,41.89315845540736,0.0 -69.96203737630506,41.89312148548546,0.0 -69.9621751367175,41.89308652493534,0.0 -69.96227949690044,41.893055956361316,0.0 -69.96234334495774,41.89303186305928,0.0 -69.96236232981842,41.89301588701727,0.0 -69.9623351577365,41.893009116998115,0.0 -69.96226368044678,41.89301201433619,0.0 -69.96215276897144,41.893024381506564,0.0 -69.96200998167794,41.89304537560644,0.0 -69.96184504920647,41.89307356582449,0.0 -69.96166921136383,41.893107030974626,0.0 -69.96149445116747,41.8931434904402,0.0 -69.96133267823369,41.893180459600146,0.0 -69.96119491715753,41.89321541914342,0.0 -69.961090556195,41.893245986735494,0.0 -69.9610267074511,41.893270079343615,0.0 -69.9610077221808,41.893286055165646,0.0</coordinates>
                        </LinearRing>
                    </outerBoundaryIs>
                </Polygon>
            </Placemark>
            <Placemark id="82">
                <name>AZ 80 EL 5.0 [IN CURRENT MASK]</name>
                <styleUrl>#2</styleUrl>
                <Polygon id="81">
                    <outerBoundaryIs>
                        <LinearRing id="85">
                            <coordinates>-69.96096247431677,41.893134105492805,0.0 -69.96098875021563,41.89314261293668,0.0 -69.96106029485557,41.89314436472773,0.0 -69.96117223256866,41.893139241406345,0.0 -69.96131693494172,41.89312759201425,0.0 -69.96148454069156,41.89311021033584,0.0 -69.96166362771005,41.893088280830476,0.0 -69.96184199147619,41.89306329793321,0.0 -69.96200747678382,41.89303696421806,0.0 -69.96214880610167,41.89301107436212,0.0 -69.9622563481133,41.89298739282045,0.0 -69.96232277406395,41.89296753355341,0.0 -69.9623435571881,41.89295285001053,0.0 -69.96231728118687,41.89294434287549,0.0 -69.9622457367365,41.892942591864625,0.0 -69.96213379945416,41.89294771622849,0.0 -69.9619890976376,41.892959366646025,0.0 -69.96182149242088,41.89297674905807,0.0 -69.96164240576931,41.89299867880871,0.0 -69.96146404210556,41.89302366139714,0.0 -69.96129855660834,41.89304999433213,0.0 -69.96115722685975,41.89307588314558,0.0 -69.96104968429162,41.8930995636618,0.0 -69.96098325780784,41.89311942219519,0.0 -69.96096247431677,41.893134105492805,0.0</coordinates>
                        </LinearRing>
                    </outerBoundaryIs>
                </Polygon>
            </Placemark>
            <Placemark id="88">
                <name>AZ 85 EL 5.0 [IN CURRENT MASK]</name>
                <styleUrl>#2</styleUrl>
                <Polygon id="87">
                    <outerBoundaryIs>
                        <LinearRing id="91">
                            <coordinates>-69.9609351895618,41.89297979843833,0.0 -69.96096036932921,41.892989978242554,0.0 -69.96103143644477,41.89299636505763,0.0 -69.96114354780163,41.892998523554084,0.0 -69.96128906317763,41.89299630652781,0.0 -69.96145806590877,41.89298986496022,0.0 -69.96163903870192,41.89297963775726,0.0 -69.961819648529,41.89296632185924,0.0 -69.96198758711091,41.89295082475249,0.0 -69.96213140971118,41.89293420261784,0.0 -69.9622413150757,41.89291758833242,0.0 -69.96230981336716,41.89290211423759,0.0 -69.96233223657647,41.89288883494359,0.0 -69.96230705663028,41.892878655439056,0.0 -69.96223598951816,41.89287226941045,0.0 -69.962123878346,41.8928701119765,0.0 -69.96197836328648,41.89287233005664,0.0 -69.96180936091878,41.89287877238707,0.0 -69.9616283884387,41.89288899985744,0.0 -69.96144777879039,41.89290231545579,0.0 -69.96127984020505,41.89291781177607,0.0 -69.9611360174201,41.892934432848214,0.0 -69.96102611173909,41.89295104607977,0.0 -69.96095761308418,41.89296651941174,0.0 -69.9609351895618,41.89297979843833,0.0</coordinates>
                        </LinearRing>
                    </outerBoundaryIs>
                </Polygon>
            </Placemark>
            <Placemark id="94">
                <name>AZ 90 EL 5.0 [IN CURRENT MASK]</name>
                <styleUrl>#2</styleUrl>
                <Polygon id="93">
                    <outerBoundaryIs>
                        <LinearRing id="97">
                            <coordinates>-69.96092607544097,41.89282430838488,0.0 -69.9609499674509,41.89283608307067,0.0 -69.96102001617943,41.89284705629111,0.0 -69.96113144793972,41.89285648016138,0.0 -69.96127666884816,41.892863712353765,0.0 -69.96144578233314,41.89286825989979,0.0 -69.9616272635719,41.892869812813714,0.0 -69.96180874489295,41.892868265238484,0.0 -69.96197785861925,41.89286372266732,0.0 -69.96212307991154,41.892856494746944,0.0 -69.96223451217207,41.892847074154695,0.0 -69.96230456148311,41.892836102994906,0.0 -69.96232845411812,41.89282432901197,0.0 -69.96230456185847,41.892812554611915,0.0 -69.9622345129471,41.8928015821721,0.0 -69.96212308111986,41.892792159368156,0.0 -69.96197786027827,41.892784928242115,0.0 -69.96180874697603,41.89278038147672,0.0 -69.96162726598696,41.89277882884852,0.0 -69.96144578491563,41.892780376138035,0.0 -69.96127667137218,41.89278491792859,0.0 -69.96113145014684,41.89279214478261,0.0 -69.96102001781946,41.892801564308506,0.0 -69.96094996832568,41.892812534687685,0.0 -69.96092607544097,41.89282430838488,0.0</coordinates>
                        </LinearRing>
                    </outerBoundaryIs>
                </Polygon>
            </Placemark>
            <Placemark id="100">
                <name>AZ 95 EL 5.0 [IN CURRENT MASK]</name>
                <styleUrl>#2</styleUrl>
                <Polygon id="99">
                    <outerBoundaryIs>
                        <LinearRing id="103">
                            <coordinates>-69.9609352011859,41.89266881870995,0.0 -69.96095762361568,41.892682098661055,0.0 -69.96102612085278,41.89269757476322,0.0 -69.96113602496,41.89271419226944,0.0 -69.96127984618569,41.892730818618844,0.0 -69.96144778336945,41.89274632064705,0.0 -69.9616283918701,41.8927596418379,0.0 -69.96180936349892,41.8927698743443,0.0 -69.96197836530719,41.89277632086458,0.0 -69.96212388006467,41.89277854215522,0.0 -69.96223599114948,41.89277638694422,0.0 -69.962307058358,41.8927700022118,0.0 -69.96233223857705,41.8927598231455,0.0 -69.96230981583419,41.892746543461776,0.0 -69.96224131823355,41.892731068122444,0.0 -69.96213141380976,41.89271445167007,0.0 -69.96198759239925,41.89269782638317,0.0 -69.961819655212,41.89268232514141,0.0 -69.96163904689008,41.892669004250244,0.0 -69.96145807557434,41.89265877147645,0.0 -69.9612890741296,41.89265232419336,0.0 -69.9611435596887,41.89265010184886,0.0 -69.9610314487887,41.892652255997355,0.0 -69.96096038158369,41.89265863994332,0.0 -69.9609352011859,41.89266881870995,0.0</coordinates>
                        </LinearRing>
                    </outerBoundaryIs>
                </Polygon>
            </Placemark>
            <Placemark id="106">
                <name>AZ 100 EL 5.0 [IN CURRENT MASK]</name>
                <styleUrl>#2</styleUrl>
                <Polygon id="105">
                    <outerBoundaryIs>
                        <LinearRing id="109">
                            <coordinates>-69.9609624972118,41.89251451277952,0.0 -69.96098327942565,41.892529196924485,0.0 -69.96104970388213,41.892549058115875,0.0 -69.96115724391758,41.892572742773055,0.0 -69.96129857091191,41.8925986367233,0.0 -69.96146405370703,41.89262497523258,0.0 -69.9616424149429,41.89264996329708,0.0 -69.96182149958581,41.89267189799063,0.0 -69.96198910327665,41.892689284524614,0.0 -69.9621338040476,41.89270093810877,0.0 -69.96224574072463,41.89270606467304,0.0 -69.96231728496515,41.892704314954656,0.0 -69.96234356112846,41.892695808272016,0.0 -69.9623227785477,41.892681124372295,0.0 -69.96225635355802,41.89266126391453,0.0 -69.96214881296599,41.89263758028278,0.0 -69.96200748554082,41.89261168737496,0.0 -69.96184200255603,41.892585349645856,0.0 -69.9616636414225,41.89256036189018,0.0 -69.96148455714652,41.89253842695138,0.0 -69.96131695398887,41.89252103968378,0.0 -69.96117225377452,41.89250938507421,0.0 -69.96106031752834,41.8925042574675,0.0 -69.96098877347747,41.8925060064057,0.0 -69.9609624972118,41.89251451277952,0.0</coordinates>
                        </LinearRing>
                    </outerBoundaryIs>
                </Polygon>
            </Placemark>
            <Placemark id="112">
                <name>AZ 105 EL 5.0 [IN CURRENT MASK]</name>
                <styleUrl>#2</styleUrl>
                <Polygon id="111">
                    <outerBoundaryIs>
                        <LinearRing id="115">
                            <coordinates>-69.96100775565108,41.89236256494212,0.0 -69.96102673949834,41.89237854152356,0.0 -69.96109058566708,41.892402636639815,0.0 -69.961194943215,41.89243320817918,0.0 -69.96133270042557,41.892468172643675,0.0 -69.96149446943885,41.892505147162275,0.0 -69.9616692260009,41.89254161190651,0.0 -69.96184506073851,41.89257508183306,0.0 -69.96200999076399,41.89260327604371,0.0 -69.96215277630006,41.892624273218914,0.0 -69.96226368667051,41.89263664253399,0.0 -69.96233516345058,41.89263954114112,0.0 -69.96236233557883,41.89263277158116,0.0 -69.96234335132195,41.89261679521967,0.0 -69.96227950446658,41.89259270079734,0.0 -69.96217514613899,41.89256213023987,0.0 -69.96203738826462,41.892527166782166,0.0 -69.9618756188813,41.892490193025495,0.0 -69.96170086234211,41.89245372859417,0.0 -69.96152502801412,41.89242025844767,0.0 -69.96136009867527,41.892392063543134,0.0 -69.96121731391888,41.89237106538602,0.0 -69.96110640421222,41.89235869506413,0.0 -69.9610349278022,41.89235579569507,0.0 -69.96100775565108,41.89236256494212,0.0</coordinates>
                        </LinearRing>
                    </outerBoundaryIs>
                </Polygon>
            </Placemark>
            <Placemark id="118">
                <name>AZ 110 EL 5.0 [IN CURRENT MASK]</name>
                <styleUrl>#2</styleUrl>
                <Polygon id="117">
                    <outerBoundaryIs>
                        <LinearRing id="121">
                            <coordinates>-69.96107063193928,41.892214131591615,0.0 -69.96108767295762,41.89223127901696,0.0 -69.96114845496004,41.892259424672645,0.0 -69.96124883583538,41.89229665041433,0.0 -69.96138197489066,41.89234041927685,0.0 -69.96153879900687,41.892387748389005,0.0 -69.96170862093352,41.89243541227685,0.0 -69.96187986759267,41.892480162694056,0.0 -69.96204086876358,41.89251894999285,0.0 -69.96218065240063,41.89254913094733,0.0 -69.9622896923822,41.892568648867694,0.0 -69.96236055772614,41.89257617373551,0.0 -69.96238841902252,41.89257119281664,0.0 -69.96237137756431,41.89255404558359,0.0 -69.96231059474266,41.892525900572764,0.0 -69.96221021288828,41.89248867575571,0.0 -69.96207707295643,41.89244490784983,0.0 -69.96192024830104,41.89239757947,0.0 -69.96175042631705,41.892349915893924,0.0 -69.96157918009777,41.89230516528443,0.0 -69.9614181797461,41.892266377340796,0.0 -69.9612783970881,41.892236195461685,0.0 -69.9611693579831,41.89221667658467,0.0 -69.96109849317833,41.89220915098452,0.0 -69.96107063193928,41.892214131591615,0.0</coordinates>
                        </LinearRing>
                    </outerBoundaryIs>
                </Polygon>
            </Placemark>
            <Placemark id="124">
                <name>AZ 115 EL 5.0 [IN CURRENT MASK]</name>
                <styleUrl>#2</styleUrl>
                <Polygon id="123">
                    <outerBoundaryIs>
                        <LinearRing id="127">
                            <coordinates>-69.96115064744107,41.89207034236708,0.0 -69.96116561595541,41.892088530134004,0.0 -69.96122287123845,41.89212051211876,0.0 -69.96131851152985,41.89216410874319,0.0 -69.9614460192166,41.89221634888395,0.0 -69.96159670496668,41.89227367237251,0.0 -69.96176029986441,41.89233217263871,0.0 -69.9619256552014,41.892387862955566,0.0 -69.96208150223907,41.89243694813629,0.0 -69.96221722016675,41.8924760831657,0.0 -69.96232355991722,41.89250260114166,0.0 -69.96239327450603,41.89251469499715,0.0 -69.96242161293004,41.89251154062512,0.0 -69.96240664395894,41.89249335302129,0.0 -69.96234938774899,41.89246137162454,0.0 -69.96225374630887,41.892417775855435,0.0 -69.96212623755943,41.892365536608175,0.0 -69.9619755511174,41.89230821381184,0.0 -69.9618119560839,41.89224971385113,0.0 -69.96164660120368,41.892194023371175,0.0 -69.96149075509292,41.89214493760246,0.0 -69.96135503831394,41.892105801717726,0.0 -69.96124869962618,41.892079282848286,0.0 -69.9611789857293,41.89206718830054,0.0 -69.96115064744107,41.89207034236708,0.0</coordinates>
                        </LinearRing>
                    </outerBoundaryIs>
                </Polygon>
            </Placemark>
            <Placemark id="130">
                <name>AZ 120 EL 5.0 [IN CURRENT MASK]</name>
                <styleUrl>#2</styleUrl>
                <Polygon id="129">
                    <outerBoundaryIs>
                        <LinearRing id="133">
                            <coordinates>-69.9612471930962,41.89193229155635,0.0 -69.96125997520514,41.89195138124605,0.0 -69.96131326806048,41.89198695615512,0.0 -69.96140343994276,41.89203659185984,0.0 -69.96152434591542,41.89209690569144,0.0 -69.9616677465578,41.89216378728008,0.0 -69.96182386943534,41.892232678691855,0.0 -69.96198207505296,41.89229888506147,0.0 -69.96213158191333,41.89235789454757,0.0 -69.96226220127043,41.892405685803645,0.0 -69.96236503150273,41.892439002012104,0.0 -69.9624330647783,41.89245557281024,0.0 -69.96246166465954,41.892454268989795,0.0 -69.96244888209085,41.89243517943334,0.0 -69.96239558822906,41.89239960504931,0.0 -69.96230541506334,41.892349970120726,0.0 -69.96218450787413,41.8922896571084,0.0 -69.9620411064081,41.892222776162626,0.0 -69.96188498332045,41.89215388504508,0.0 -69.9617267781626,41.892087678542225,0.0 -69.96157727230869,41.89202866853108,0.0 -69.96144665423502,41.89198087649888,0.0 -69.96134382521926,41.89194755947115,0.0 -69.96127579276735,41.891930988030126,0.0 -69.9612471930962,41.89193229155635,0.0</coordinates>
                        </LinearRing>
                    </outerBoundaryIs>
                </Polygon>
            </Placemark>
            <Placemark id="136">
                <name>AZ 125 EL 5.0 [IN CURRENT MASK]</name>
                <styleUrl>#2</styleUrl>
                <Polygon id="135">
                    <outerBoundaryIs>
                        <LinearRing id="139">
                            <coordinates>-69.96135953405776,41.891801029768935,0.0 -69.96137003249981,41.89182087609964,0.0 -69.96141895737874,41.89185977318658,0.0 -69.9615029746503,41.891915070211844,0.0 -69.96161635881408,41.89198299870568,0.0 -69.9617513830599,41.8920589293799,0.0 -69.96189884580149,41.89213768762605,0.0 -69.96204869772448,41.89221390617202,0.0 -69.96219072662313,41.89228239086018,0.0 -69.96231525335727,41.892338474617965,0.0 -69.96241379149798,41.89237833549884,0.0 -69.96247962570061,41.892399257123195,0.0 -69.96250826938008,41.89239981377543,0.0 -69.96249777048921,41.8923799675484,0.0 -69.9624488445549,41.89234107091935,0.0 -69.96236482590416,41.89228577458351,0.0 -69.96225144040696,41.89221784682593,0.0 -69.96211641523077,41.89214191673745,0.0 -69.96196895221114,41.89206315876962,0.0 -69.96181910073696,41.89198694011999,0.0 -69.9616770728937,41.89191845497395,0.0 -69.96155254753874,41.89186237052673,0.0 -69.96145401073146,41.89182250890963,0.0 -69.96138817745921,41.89180158669951,0.0 -69.96135953405776,41.891801029768935,0.0</coordinates>
                        </LinearRing>
                    </outerBoundaryIs>
                </Polygon>
            </Placemark>
            <Placemark id="142">
                <name>AZ 130 EL 5.0 [IN CURRENT MASK]</name>
                <styleUrl>#2</styleUrl>
                <Polygon id="141">
                    <outerBoundaryIs>
                        <LinearRing id="145">
                            <coordinates>-69.96148681528706,41.89167755594152,0.0 -69.9614949501804,41.891698007874055,0.0 -69.96153913477893,41.89173993111145,0.0 -69.96161635808238,41.89180046861556,0.0 -69.9617213575934,41.891875494795755,0.0 -69.96184697790967,41.89195989667724,0.0 -69.96198465831503,41.892047922359055,0.0 -69.96212501615109,41.89213357301065,0.0 -69.96225848622089,41.8922110116892,0.0 -69.96237597265264,41.89227496111553,0.0 -69.962469468797,41.892321063301644,0.0 -69.9625326029054,41.89234617652439,0.0 -69.9625610723919,41.89234858941135,0.0 -69.96255293707435,41.89232813755404,0.0 -69.96250875140355,41.892286214705244,0.0 -69.96243152666707,41.892225677799004,0.0 -69.96232652574626,41.892150652265705,0.0 -69.96220090442118,41.89206625090683,0.0 -69.96206322367831,41.89197822548331,0.0 -69.96192286626648,41.891892574756454,0.0 -69.96178939726894,41.89181513568932,0.0 -69.96167191227022,41.891751185665136,0.0 -69.96157841753565,41.89170508283211,0.0 -69.96151528443605,41.89167996908675,0.0 -69.96148681528706,41.89167755594152,0.0</coordinates>
                        </LinearRing>
                    </outerBoundaryIs>
                </Polygon>
            </Placemark>
            <Placemark id="148">
                <name>AZ 135 EL 5.0 [IN CURRENT MASK]</name>
                <styleUrl>#2</styleUrl>
                <Polygon id="147">
                    <outerBoundaryIs>
                        <LinearRing id="151">
                            <coordinates>-69.9616280680627,41.89156280973666,0.0 -69.96163377751253,41.89158371162406,0.0 -69.96167288560359,41.89162834195654,0.0 -69.96174272728965,41.89169365921882,0.0 -69.9618385431194,41.89177521209703,0.0 -69.96195380354658,41.89186744284198,0.0 -69.96208065386912,41.891964066035314,0.0 -69.96221044948578,41.89205849694262,0.0 -69.96233434500118,41.89214430025852,0.0 -69.96244389703512,41.892215628660715,0.0 -69.96253163965335,41.892267621286855,0.0 -69.96259159319725,41.89229673498071,0.0 -69.9626196718263,41.89230098573767,0.0 -69.96261396198975,41.89228008389911,0.0 -69.96257485284211,41.892235453885924,0.0 -69.96250500971274,41.89217013712783,0.0 -69.96240919243967,41.89208858480361,0.0 -69.9622939309559,41.89199635451401,0.0 -69.96216708024662,41.89189973155539,0.0 -69.96203728501668,41.89180530059925,0.0 -69.96191339055785,41.891719496964065,0.0 -69.96180383996723,41.891648168057685,0.0 -69.96171609879232,41.89159617487755,0.0 -69.96165614630502,41.891567060728335,0.0 -69.9616280680627,41.89156280973666,0.0</coordinates>
                        </LinearRing>
                    </outerBoundaryIs>
                </Polygon>
            </Placemark>
            <Placemark id="154">
                <name>AZ 140 EL 5.0 [IN CURRENT MASK]</name>
                <styleUrl>#2</styleUrl>
                <Polygon id="153">
                    <outerBoundaryIs>
                        <LinearRing id="157">
                            <coordinates>-69.9617822173542,41.891457664393045,0.0 -69.96178545792333,41.89147885716488,0.0 -69.96181919191427,41.891525854937306,0.0 -69.96188112051212,41.89159545486462,0.0 -69.96196702352606,41.8916829137857,0.0 -69.96207104695083,41.89178227147363,0.0 -69.96218610186905,41.89188675682761,0.0 -69.96230434752057,41.89198924932262,0.0 -69.96241772562593,41.89208276426703,0.0 -69.96251850955385,41.8921609287971,0.0 -69.96259983090535,41.89221841617035,0.0 -69.96265614762156,41.892251308763285,0.0 -69.96268362170422,41.89225736503864,0.0 -69.96268038079761,41.89223617229206,0.0 -69.96264664579788,41.89218917477167,0.0 -69.96258471579027,41.892119575255634,0.0 -69.96249881134334,41.89203211679488,0.0 -69.9623947868463,41.89193275949298,0.0 -69.96227973150386,41.8918282743473,0.0 -69.96216148618983,41.891725781827034,0.0 -69.96204810909323,41.8916322666306,0.0 -69.96194732657507,41.89155410168926,0.0 -69.96186600665658,41.891496613855665,0.0 -69.96180969101263,41.891463720876686,0.0 -69.9617822173542,41.891457664393045,0.0</coordinates>
                        </LinearRing>
                    </outerBoundaryIs>
                </Polygon>
            </Placemark>
        </Folder>
        <Folder id="159">
            <Style id="5">
                <LineStyle id="6">
                    <color>ff00a5ff</color>
                    <colorMode>normal</colorMode>
                    <width>2</width>
                </LineStyle>
                <PolyStyle id="7">
                    <color>2800a5ff</color>
                    <colorMode>normal</colorMode>
                    <fill>1</fill>
                    <outline>1</outline>
                </PolyStyle>
            </Style>
            <name>RH = 12.9m (RH12.9m_az33)</name>
            <Placemark id="161">
                <name>AZ 20 EL 5.0 [IN CURRENT MASK]</name>
                <styleUrl>#5</styleUrl>
                <Polygon id="160">
                    <outerBoundaryIs>
                        <LinearRing id="164">
                            <coordinates>-69.96240601981953,41.894699105559134,0.0 -69.96243066630373,41.89468553292108,0.0 -69.96247112029582,41.89463712252803,0.0 -69.96252462482937,41.894557173453485,0.0 -69.9625875335469,41.89445113407943,0.0 -69.96265555922298,41.89432623080239,0.0 -69.96272406595857,41.89419097556942,0.0 -69.9627883851263,41.89405458580437,0.0 -69.96284413353148,41.89392635625473,0.0 -69.96288751210611,41.89381502556728,0.0 -69.962915564784,41.89372818075966,0.0 -69.96292637992175,41.8936717401736,0.0 -69.96291922054728,41.893649550146634,0.0 -69.96289457456665,41.893663122889166,0.0 -69.96285412151242,41.893711533430825,0.0 -69.9628006180997,41.89379148265831,0.0 -69.96273771038567,41.89389752214865,0.0 -69.96266968532683,41.89402242547417,0.0 -69.96260117865687,41.89415768067482,0.0 -69.96253685898557,41.89429407033543,0.0 -69.96248110964254,41.89442229973644,0.0 -69.96243772994707,41.89453363027094,0.0 -69.96240967626568,41.89462047496227,0.0 -69.96239886051067,41.89467691549986,0.0 -69.96240601981953,41.894699105559134,0.0</coordinates>
                        </LinearRing>
                    </outerBoundaryIs>
                </Polygon>
            </Placemark>
            <Placemark id="167">
                <name>AZ 25 EL 5.0 [IN CURRENT MASK]</name>
                <styleUrl>#5</styleUrl>
                <Polygon id="166">
                    <outerBoundaryIs>
                        <LinearRing id="170">
                            <coordinates>-69.96218999916847,41.89463249772908,0.0 -69.96221614104522,41.894620575763405,0.0 -69.9622621093821,41.89457497418233,0.0 -69.96232477140688,41.89449880063691,0.0 -69.9623998566748,41.89439724620513,0.0 -69.96248224812736,41.89427723163492,0.0 -69.96256633084411,41.894146935711426,0.0 -69.96264637471131,41.89401523788904,0.0 -69.96271692492395,41.8938911131705,0.0 -69.96277317370763,41.89378302047158,0.0 -69.96281128793208,41.89369832615428,0.0 -69.96282867029743,41.89364280201522,0.0 -69.96282413630331,41.89362023194213,0.0 -69.96279799494948,41.893632154045704,0.0 -69.96275202767377,41.89367775584048,0.0 -69.96268936696403,41.89375392961818,0.0 -69.96261428291271,41.893855484238514,0.0 -69.9625318922523,41.893975498903124,0.0 -69.96244780969099,41.89410579480149,0.0 -69.96236776530087,41.894237492485985,0.0 -69.96229721402707,41.89436161699083,0.0 -69.96224096392832,41.89446970945749,0.0 -69.96220284848728,41.89455440358619,0.0 -69.9621854653298,41.894609927630874,0.0 -69.96218999916847,41.89463249772908,0.0</coordinates>
                        </LinearRing>
                    </outerBoundaryIs>
                </Polygon>
            </Placemark>
            <Placemark id="173">
                <name>AZ 30 EL 5.0 [IN CURRENT MASK]</name>
                <styleUrl>#5</styleUrl>
                <Polygon id="172">
                    <outerBoundaryIs>
                        <LinearRing id="176">
                            <coordinates>-69.96198259989079,41.89455212832927,0.0 -69.96201003818304,41.89454194777255,0.0 -69.96206117097121,41.89449950207496,0.0 -69.96213251352519,41.89442768381211,0.0 -69.96221920382102,41.894331387247654,0.0 -69.96231533391916,41.894217174806,0.0 -69.96241435261811,41.89409282986125,0.0 -69.96250951193313,41.8939668263171,0.0 -69.96259432696675,41.89384775112403,0.0 -69.9626630178297,41.89374371908825,0.0 -69.96271090349997,41.89366181985331,0.0 -69.96273472078738,41.89360763474406,0.0 -69.9627328466774,41.893584856401226,0.0 -69.9627054089115,41.89359503713001,0.0 -69.96265427727555,41.89363748311339,0.0 -69.9625829361909,41.89370930169917,0.0 -69.9624962472878,41.89380559853718,0.0 -69.9624001181326,41.893919811129706,0.0 -69.96230109967419,41.89404415606223,0.0 -69.9622059398328,41.89417015943433,0.0 -69.96212112364697,41.894289234341606,0.0 -69.9620524313147,41.89439326605448,0.0 -69.9620045442517,41.89447516501586,0.0 -69.96198072602131,41.89452934997423,0.0 -69.96198259989079,41.89455212832927,0.0</coordinates>
                        </LinearRing>
                    </outerBoundaryIs>
                </Polygon>
            </Placemark>
            <Placemark id="179">
                <name>AZ 35 EL 5.0 [IN CURRENT MASK]</name>
                <styleUrl>#5</styleUrl>
                <Polygon id="178">
                    <outerBoundaryIs>
                        <LinearRing id="182">
                            <coordinates>-69.96178540051551,41.89445860907008,0.0 -69.96181392637963,41.89445024740425,0.0 -69.9618698344173,41.89441128064033,0.0 -69.96194931446745,41.89434436426265,0.0 -69.96204694993824,41.89425405846958,0.0 -69.96215608698121,41.89414651741486,0.0 -69.96226928798082,41.89402906982207,0.0 -69.96237883844422,41.89390971954994,0.0 -69.96247727273972,41.89379660014286,0.0 -69.96255788285345,41.89369742053771,0.0 -69.9626151754971,41.89361893970287,0.0 -69.9626452464242,41.89356650601434,0.0 -69.96264604645717,41.89354369276297,0.0 -69.96261752110686,41.89355205463472,0.0 -69.96256161427745,41.89359102176128,0.0 -69.96248213580625,41.893657938561155,0.0 -69.962384501862,41.893748244722836,0.0 -69.96227536588417,41.893855785993814,0.0 -69.96216216520286,41.893973233592575,0.0 -69.96205261422563,41.89409258365879,0.0 -69.96195417872187,41.894205702703225,0.0 -69.9618735670292,41.89430488188617,0.0 -69.961816272859,41.894383362352414,0.0 -69.96178620086677,41.89443579582468,0.0 -69.96178540051551,41.89445860907008,0.0</coordinates>
                        </LinearRing>
                    </outerBoundaryIs>
                </Polygon>
            </Placemark>
            <Placemark id="185">
                <name>AZ 40 EL 5.0 [IN CURRENT MASK]</name>
                <styleUrl>#5</styleUrl>
                <Polygon id="184">
                    <outerBoundaryIs>
                        <LinearRing id="188">
                            <coordinates>-69.96159990191919,41.89435265174553,0.0 -69.96162929823501,41.89434617260833,0.0 -69.96168955597565,41.89431098134811,0.0 -69.96177656855303,41.89424947614699,0.0 -69.96188440603991,41.8941658484301,0.0 -69.96200571932853,41.89406579724112,0.0 -69.96213224100336,41.8939561408744,0.0 -69.96225534878275,41.89384435222724,0.0 -69.96236665312351,41.89373804953502,0.0 -69.96245856894137,41.893644477194705,0.0 -69.96252483248918,41.89357001205928,0.0 -69.96256092817686,41.89351972885172,0.0 -69.96256439625832,41.893497054318345,0.0 -69.96253500042816,41.89350353369402,0.0 -69.9624747439151,41.89353872539619,0.0 -69.96238773297829,41.89360023112435,0.0 -69.9622798971054,41.89368385931212,0.0 -69.9621585849717,41.89378391078965,0.0 -69.96203206368328,41.89389356718528,0.0 -69.96190895541824,41.894005355593976,0.0 -69.9617976498499,41.894111657844235,0.0 -69.96170573239144,41.89420522965753,0.0 -69.96163946722966,41.89427969432207,0.0 -69.96160337038705,41.89432997724108,0.0 -69.96159990191919,41.89435265174553,0.0</coordinates>
                        </LinearRing>
                    </outerBoundaryIs>
                </Polygon>
            </Placemark>
            <Placemark id="191">
                <name>AZ 45 EL 5.0 [IN CURRENT MASK]</name>
                <styleUrl>#5</styleUrl>
                <Polygon id="190">
                    <outerBoundaryIs>
                        <LinearRing id="194">
                            <coordinates>-69.96142751590114,41.89423506281463,0.0 -69.961457558925,41.89423051551523,0.0 -69.96152170771764,41.894199367591476,0.0 -69.96161559052399,41.894143741670824,0.0 -69.96173280922088,41.894067428504464,0.0 -69.96186537538274,41.89397562865092,0.0 -69.9620042547239,41.893874598081965,0.0 -69.9621399828025,41.89377122185835,0.0 -69.96226331001856,41.89367254492569,0.0 -69.96236583194693,41.893585292005994,0.0 -69.96244056205269,41.89351540930489,0.0 -69.96248240776771,41.89346765927064,0.0 -69.96248851749651,41.89344529602566,0.0 -69.96245847491538,41.89344984359377,0.0 -69.96239432733235,41.89348099203885,0.0 -69.96230044617838,41.89353661859375,0.0 -69.96218322913386,41.89361293233735,0.0 -69.96205066418162,41.893704732556465,0.0 -69.96191178528323,41.89380576318133,0.0 -69.96177605676188,41.893909139136234,0.0 -69.96165272833622,41.894007815547575,0.0 -69.96155020475547,41.894095067833014,0.0 -69.96147547299734,41.89416494995688,0.0 -69.96143362607269,41.8942126996256,0.0 -69.96142751590114,41.89423506281463,0.0</coordinates>
                        </LinearRing>
                    </outerBoundaryIs>
                </Polygon>
            </Placemark>
            <Placemark id="197">
                <name>AZ 50 EL 5.0 [IN CURRENT MASK]</name>
                <styleUrl>#5</styleUrl>
                <Polygon id="196">
                    <outerBoundaryIs>
                        <LinearRing id="200">
                            <coordinates>-69.96126955443752,41.89410673726175,0.0 -69.96130001550576,41.89410415640567,0.0 -69.96136756708717,41.89407728887544,0.0 -69.96146760553773,41.89402796558909,0.0 -69.96159331324115,41.89395954777307,0.0 -69.96173612326128,41.89387669792013,0.0 -69.9618863032086,41.89378506206636,0.0 -69.96203361851938,41.89369088503515,0.0 -69.96216802993725,41.89360058486509,0.0 -69.96228037766156,41.89352031542331,0.0 -69.9623630055418,41.89345554701362,0.0 -69.96241028278838,41.893410693564455,0.0 -69.96241898765771,41.89338881180873,0.0 -69.96238852697586,41.89339139296051,0.0 -69.96232097654932,41.89341826108906,0.0 -69.9622209397127,41.89346758511602,0.0 -69.96209523364983,41.89353600361649,0.0 -69.96195242485729,41.89361885391436,0.0 -69.96180224539563,41.89371048985429,0.0 -69.96165492969848,41.8938046665898,0.0 -69.96152051712575,41.89389496616154,0.0 -69.96140816778748,41.89397523486271,0.0 -69.96132553826668,41.89404000258793,0.0 -69.96127825979252,41.894084855592176,0.0 -69.96126955443752,41.89410673726175,0.0</coordinates>
                        </LinearRing>
                    </outerBoundaryIs>
                </Polygon>
            </Placemark>
            <Placemark id="203">
                <name>AZ 55 EL 5.0 [IN CURRENT MASK]</name>
                <styleUrl>#5</styleUrl>
                <Polygon id="202">
                    <outerBoundaryIs>
                        <LinearRing id="206">
                            <coordinates>-69.96112721969595,41.893968651783446,0.0 -69.96115786696564,41.893968057009246,0.0 -69.96122830717795,41.893945674349915,0.0 -69.96133373984242,41.89390302907975,0.0 -69.9614669797447,41.89384302731919,0.0 -69.96161894664792,41.89376975801024,0.0 -69.96177928413805,41.89368821428282,0.0 -69.96193706542877,41.89360395319535,0.0 -69.96208153801769,41.893522717033534,0.0 -69.96220285644299,41.893450041974546,0.0 -69.962292753207,41.893390880787756,0.0 -69.96234510215152,41.89334926528911,0.0 -69.96235633590321,41.89332803155846,0.0 -69.96232568895178,41.893328626651304,0.0 -69.96225524980454,41.893351009981224,0.0 -69.96214981866656,41.893393656094275,0.0 -69.96201658034316,41.89345365864413,0.0 -69.96186461464816,41.89352692847732,0.0 -69.96170427767186,41.893608472323436,0.0 -69.96154649606287,41.89369273309225,0.0 -69.96140202240889,41.893773968583474,0.0 -69.9612807024571,41.89384664279959,0.0 -69.96119080411421,41.893905803197086,0.0 -69.96113845396147,41.893947418171486,0.0 -69.96112721969595,41.893968651783446,0.0</coordinates>
                        </LinearRing>
                    </outerBoundaryIs>
                </Polygon>
            </Placemark>
            <Placemark id="209">
                <name>AZ 60 EL 5.0 [IN CURRENT MASK]</name>
                <styleUrl>#5</styleUrl>
                <Polygon id="208">
                    <outerBoundaryIs>
                        <LinearRing id="212">
                            <coordinates>-69.96100159488675,41.89382185735333,0.0 -69.9610321951007,41.89382325318337,0.0 -69.96110498780591,41.893805525736674,0.0 -69.96121501220564,41.89376988303593,0.0 -69.96135477017974,41.89371875397857,0.0 -69.96151473730644,41.8936556228366,0.0 -69.96168401197534,41.89358479183297,0.0 -69.96185105834489,41.89351108796827,0.0 -69.9620044925051,41.89343953407275,0.0 -69.9621338582657,41.89337500649964,0.0 -69.96223033970301,41.89332190279014,0.0 -69.96228736191333,41.89328384196303,0.0 -69.96230103904233,41.893263417860844,0.0 -69.96227043906886,41.893262022367644,0.0 -69.96219764730652,41.89327975055032,0.0 -69.96208762429944,41.893315394188996,0.0 -69.96194786779459,41.893366524134905,0.0 -69.96178790182005,41.893429655877966,0.0 -69.9616186276775,41.89350048703416,0.0 -69.96145158106746,41.89357419056202,0.0 -69.96129814596438,41.893645743721564,0.0 -69.96116877881113,41.89371027035674,0.0 -69.96107229590457,41.8937633731777,0.0 -69.9610152725421,41.89380143340371,0.0 -69.96100159488675,41.89382185735333,0.0</coordinates>
                        </LinearRing>
                    </outerBoundaryIs>
                </Polygon>
            </Placemark>
            <Placemark id="215">
                <name>AZ 65 EL 5.0 [IN CURRENT MASK]</name>
                <styleUrl>#5</styleUrl>
                <Polygon id="214">
                    <outerBoundaryIs>
                        <LinearRing id="218">
                            <coordinates>-69.9608936360203,41.89366747122169,0.0 -69.96092395628267,41.8936708470279,0.0 -69.96099854744442,41.893657909703784,0.0 -69.96111232616201,41.89362954082745,0.0 -69.96125753848234,41.89358767358873,0.0 -69.96142428829441,41.89353516107296,0.0 -69.96160121176808,41.89347558185404,0.0 -69.96177625180874,41.893412996138636,0.0 -69.96193747974245,41.89335166907474,0.0 -69.96207390823106,41.893295780079605,0.0 -69.96217624002007,41.893249137998055,0.0 -69.96223750149855,41.89321492150871,0.0 -69.96225351790396,41.89319546247601,0.0 -69.962223197797,41.89319208701952,0.0 -69.96214860742731,41.89320502513611,0.0 -69.96203482992621,41.89323339503533,0.0 -69.96188961892082,41.893275263253244,0.0 -69.96172287016984,41.89332777644218,0.0 -69.96154594721908,41.893387355847835,0.0 -69.96137090702301,41.893449941213525,0.0 -69.96120967829725,41.89351126748493,0.0 -69.96107324859216,41.89356715545719,0.0 -69.96097091548819,41.89361379655953,0.0 -69.96090965294863,41.89364801237573,0.0 -69.9608936360203,41.89366747122169,0.0</coordinates>
                        </LinearRing>
                    </outerBoundaryIs>
                </Polygon>
            </Placemark>
            <Placemark id="221">
                <name>AZ 70 EL 5.0 [IN CURRENT MASK]</name>
                <styleUrl>#5</styleUrl>
                <Polygon id="220">
                    <outerBoundaryIs>
                        <LinearRing id="224">
                            <coordinates>-69.96080416463347,41.89350666841088,0.0 -69.96083397418252,41.89351199849584,0.0 -69.96090979608377,41.89350394974616,0.0 -69.96102646313832,41.893483070587074,0.0 -69.96117602457895,41.893450783789376,0.0 -69.96134828792869,41.893409289539214,0.0 -69.96153151363124,41.89336141552741,0.0 -69.96171321510748,41.89331042426679,0.0 -69.9618810097086,41.8932597907631,0.0 -69.96202346257152,41.893212965689756,0.0 -69.96213086586927,41.89317314020749,0.0 -69.96219590035655,41.893143028462845,0.0 -69.96221413413421,41.89312468259524,0.0 -69.96218432465076,41.89311935286721,0.0 -69.96210850336666,41.89312740245526,0.0 -69.9619918373155,41.893148282709504,0.0 -69.96184227699558,41.893180570565725,0.0 -69.96167001458362,41.89322206555413,0.0 -69.96148678938461,41.89326993978608,0.0 -69.96130508784279,41.8933209306898,0.0 -69.96113729262449,41.893371563355096,0.0 -69.96099483875821,41.8934183873333,0.0 -69.96088743433975,41.89345821175705,0.0 -69.9608223989147,41.89348832276344,0.0 -69.96080416463347,41.89350666841088,0.0</coordinates>
                        </LinearRing>
                    </outerBoundaryIs>
                </Polygon>
            </Placemark>
            <Placemark id="227">
                <name>AZ 75 EL 5.0 [IN CURRENT MASK]</name>
                <styleUrl>#5</styleUrl>
                <Polygon id="226">
                    <outerBoundaryIs>
                        <LinearRing id="230">
                            <coordinates>-69.96073386154,41.89334067277113,0.0 -69.96076293350454,41.89334791656389,0.0 -69.96083940906935,41.89334481763356,0.0 -69.96095807650875,41.89333158708,0.0 -69.96111084875696,41.8933091264284,0.0 -69.96128731454858,41.89327896622278,0.0 -69.96147544795302,41.89324316175195,0.0 -69.96166242794281,41.893204153006266,0.0 -69.96183551213804,41.89316459840306,0.0 -69.96198290517914,41.89312719361031,0.0 -69.96209456254985,41.89309448781798,0.0 -69.96216287507403,41.893068709984064,0.0 -69.96218318744457,41.89305161690469,0.0 -69.96215411545383,41.893044373470126,0.0 -69.96207764031254,41.8930474732727,0.0 -69.9619589736329,41.893060704978836,0.0 -69.96180620227712,41.893083166754494,0.0 -69.96162973727148,41.89311332775448,0.0 -69.96144160433595,41.893149132477134,0.0 -69.96125462437236,41.89318814086462,0.0 -69.96108153975361,41.89322769459559,0.0 -69.96093414595275,41.893265098235766,0.0 -69.9608224876896,41.89329780290402,0.0 -69.96075417437946,41.893323579943576,0.0 -69.96073386154,41.89334067277113,0.0</coordinates>
                        </LinearRing>
                    </outerBoundaryIs>
                </Polygon>
            </Placemark>
            <Placemark id="233">
                <name>AZ 80 EL 5.0 [IN CURRENT MASK]</name>
                <styleUrl>#5</styleUrl>
                <Polygon id="232">
                    <outerBoundaryIs>
                        <LinearRing id="236">
                            <coordinates>-69.96068326165278,41.893170747664925,0.0 -69.96071137477887,41.893179850030045,0.0 -69.96078792196498,41.8931817244915,0.0 -69.96090768662519,41.89317624321865,0.0 -69.96106250694659,41.89316377963195,0.0 -69.96124183211647,41.89314518298698,0.0 -69.9614334413599,41.89312172053044,0.0 -69.96162427678162,41.893094991161945,0.0 -69.96180133325129,41.89306681647908,0.0 -69.9619525446848,41.89303911662917,0.0 -69.9620676063221,41.893013779430404,0.0 -69.96213867696638,41.89299253168827,0.0 -69.96216091333166,41.89297682148522,0.0 -69.96213280008837,41.89296771947364,0.0 -69.96205625311927,41.89296584590528,0.0 -69.96193648895213,41.89297132837149,0.0 -69.96178166926776,41.89298379313205,0.0 -69.96160234470817,41.89300239061687,0.0 -69.96141073588475,41.89302585335417,0.0 -69.96121990058025,41.89305258236914,0.0 -69.96104284389355,41.8930807561589,0.0 -69.96089163196697,41.89310845481545,0.0 -69.96077656969265,41.89313379084035,0.0 -69.96070549843807,41.89315503774264,0.0 -69.96068326165278,41.893170747664925,0.0</coordinates>
                        </LinearRing>
                    </outerBoundaryIs>
                </Polygon>
            </Placemark>
            <Placemark id="239">
                <name>AZ 85 EL 5.0 [IN CURRENT MASK]</name>
                <styleUrl>#5</styleUrl>
                <Polygon id="238">
                    <outerBoundaryIs>
                        <LinearRing id="242">
                            <coordinates>-69.96065274991686,41.89299818635109,0.0 -69.96067969025164,41.89300907800844,0.0 -69.96075572648074,41.89301591158279,0.0 -69.96087567686043,41.89301822128742,0.0 -69.96103136694941,41.89301584959824,0.0 -69.96121218668924,41.89300895802146,0.0 -69.9614058134719,41.8929980161194,0.0 -69.96159905191634,41.89298376953402,0.0 -69.96177873312145,41.89296718918082,0.0 -69.96193261211045,41.89294940507344,0.0 -69.96205020230563,41.89293162929091,0.0 -69.96212349016572,41.89291507334394,0.0 -69.96214748128575,41.89290086558021,0.0 -69.96212054074634,41.89288997426592,0.0 -69.96204450452115,41.89288314159185,0.0 -69.96192455435289,41.892880833103526,0.0 -69.96176886462617,41.892883205999084,0.0 -69.96158804530239,41.89289009844913,0.0 -69.9613944188781,41.89290104065729,0.0 -69.96120118063831,41.892915286899644,0.0 -69.9610214994293,41.892931866352534,0.0 -69.96086762022888,41.89294964924362,0.0 -69.96075002967142,41.89296742381975,0.0 -69.96067674139526,41.892983978893476,0.0 -69.96065274991686,41.89299818635109,0.0</coordinates>
                        </LinearRing>
                    </outerBoundaryIs>
                </Polygon>
            </Placemark>
            <Placemark id="245">
                <name>AZ 90 EL 5.0 [IN CURRENT MASK]</name>
                <styleUrl>#5</styleUrl>
                <Polygon id="244">
                    <outerBoundaryIs>
                        <LinearRing id="248">
                            <coordinates>-69.96064255838449,41.8928243021414,0.0 -69.96066812090434,41.89283690019374,0.0 -69.96074306749607,41.892848640860024,0.0 -69.96086229069422,41.89285872394399,0.0 -69.96101766564252,41.89286646217818,0.0 -69.96119860378737,41.89287132809279,0.0 -69.96139277447232,41.892872989994494,0.0 -69.96158694525751,41.892871334594766,0.0 -69.96176788369624,41.89286647473902,0.0 -69.96192325911204,41.8928587417077,0.0 -69.96204248291943,41.89284866261603,0.0 -69.9621174302206,41.8928369244594,0.0 -69.96214299350174,41.892824327263064,0.0 -69.96211743069603,41.89281172953781,0.0 -69.962042483895,41.89279998976513,0.0 -69.96192326062018,41.892789907901836,0.0 -69.9617678857484,41.892782170888324,0.0 -69.96158694781275,41.89277730586733,0.0 -69.96139277741362,41.892775644292705,0.0 -69.9611986069143,41.89277729936536,0.0 -69.96101766868486,41.8927821583275,0.0 -69.96086229334573,41.892789890138154,0.0 -69.96074306946181,41.89279996800913,0.0 -69.96066812195146,41.89281170527216,0.0 -69.96064255838449,41.8928243021414,0.0</coordinates>
                        </LinearRing>
                    </outerBoundaryIs>
                </Polygon>
            </Placemark>
            <Placemark id="251">
                <name>AZ 95 EL 5.0 [IN CURRENT MASK]</name>
                <styleUrl>#5</styleUrl>
                <Polygon id="250">
                    <outerBoundaryIs>
                        <LinearRing id="254">
                            <coordinates>-69.96065276445385,41.89265041840508,0.0 -69.96067675462449,41.89266462696911,0.0 -69.96075004120048,41.892681185360814,0.0 -69.9608676298644,41.89269896506595,0.0 -69.9610215071793,41.892716754306434,0.0 -69.96120118668159,41.89273334065348,0.0 -69.96139442351057,41.89274759368498,0.0 -69.9615880488752,41.8927585420461,0.0 -69.96176886749107,41.89276543965473,0.0 -69.96192455682677,41.89276781653747,0.0 -69.96204450687513,41.8927655108342,0.0 -69.96212054321745,41.892758679796295,0.0 -69.96214748410227,41.89274778903764,0.0 -69.96212349357326,41.89273358077972,0.0 -69.9620502065811,41.892717023261234,0.0 -69.96193261755478,41.89269924476249,0.0 -69.96177874002832,41.892681456738266,0.0 -69.96159906052199,41.89266487129151,0.0 -69.96140582389762,41.89265061860308,0.0 -69.96121219889137,41.89263966993585,0.0 -69.96103138069165,41.89263277145399,0.0 -69.96087569171837,41.89263039336488,0.0 -69.96075574188158,41.89263269785187,0.0 -69.96067970554327,41.89263952798949,0.0 -69.96065276445385,41.89265041840508,0.0</coordinates>
                        </LinearRing>
                    </outerBoundaryIs>
                </Polygon>
            </Placemark>
            <Placemark id="257">
                <name>AZ 100 EL 5.0 [IN CURRENT MASK]</name>
                <styleUrl>#5</styleUrl>
                <Polygon id="256">
                    <outerBoundaryIs>
                        <LinearRing id="260">
                            <coordinates>-69.96068329028506,41.892477858496974,0.0 -69.96070552554168,41.892493569433306,0.0 -69.96077659436624,41.892514819519086,0.0 -69.96089165359673,41.8925401605122,0.0 -69.96104286220042,41.89256786534857,0.0 -69.96121991561012,41.892596045870185,0.0 -69.96141074795024,41.89262278153184,0.0 -69.96160235430045,41.89264625030706,0.0 -69.96178167696269,41.892664852865614,0.0 -69.96193649533286,41.892677321557834,0.0 -69.96205625873128,41.892682806780165,0.0 -69.96213280543095,41.892680934843,0.0 -69.96216091887912,41.89267183340498,0.0 -69.96213868320247,41.8926561227494,0.0 -69.96206761376756,41.892634873503425,0.0 -69.9619525538999,41.89260953368414,0.0 -69.961801344803,41.89258183004108,0.0 -69.96162429117621,41.892553650412545,0.0 -69.96143345895324,41.89252691510442,0.0 -69.96124185302305,41.89250344604846,0.0 -69.96106253097119,41.89248484265009,0.0 -69.96090771323814,41.89247237278407,0.0 -69.96078795033296,41.89246688636841,0.0 -69.96071140385038,41.892468757412495,0.0 -69.96068329028506,41.892477858496974,0.0</coordinates>
                        </LinearRing>
                    </outerBoundaryIs>
                </Polygon>
            </Placemark>
            <Placemark id="263">
                <name>AZ 105 EL 5.0 [IN CURRENT MASK]</name>
                <styleUrl>#5</styleUrl>
                <Polygon id="262">
                    <outerBoundaryIs>
                        <LinearRing id="266">
                            <coordinates>-69.96073390339761,41.89230793568614,0.0 -69.9607542145339,41.892325029422494,0.0 -69.960822524758,41.89235080946592,0.0 -69.96093417891954,41.89238351886973,0.0 -69.9610815680611,41.892420928429786,0.0 -69.96125464793215,41.8924604886313,0.0 -69.96144162346785,41.89249950342475,0.0 -69.9616297525918,41.892535313980666,0.0 -69.96180621456826,41.892565479893996,0.0 -69.96195898372662,41.89258794548694,0.0 -69.96207764901206,41.89260117987877,0.0 -69.96215412350554,41.89260428128267,0.0 -69.96218319555442,41.892597038430246,0.0 -69.9621628839492,41.892579944945695,0.0 -69.9620945729391,41.892554165696595,0.0 -69.96198291788504,41.892521457416805,0.0 -69.96183552798361,41.89248404900924,0.0 -69.96166244768895,41.892444489679946,0.0 -69.96147547217942,41.892405475244686,0.0 -69.96128734352438,41.89236966443697,0.0 -69.96111088233394,41.892339497729324,0.0 -69.96095811406809,41.892317031012375,0.0 -69.96083944954252,41.89230379546803,0.0 -69.96076297547265,41.89230069319192,0.0 -69.96073390339761,41.89230793568614,0.0</coordinates>
                        </LinearRing>
                    </outerBoundaryIs>
                </Polygon>
            </Placemark>
            <Placemark id="269">
                <name>AZ 110 EL 5.0 [IN CURRENT MASK]</name>
                <styleUrl>#5</styleUrl>
                <Polygon id="268">
                    <outerBoundaryIs>
                        <LinearRing id="272">
                            <coordinates>-69.96080421844457,41.89214194316165,0.0 -69.96082245089991,41.89216028960299,0.0 -69.96088748267665,41.89219040339395,0.0 -69.96099488206036,41.89223023225574,0.0 -69.96113733007249,41.89227706181148,0.0 -69.96130511921665,41.89232770059495,0.0 -69.9614868150016,41.892378697572966,0.0 -69.96167003516646,41.892426577350136,0.0 -69.96184229350946,41.892468077020744,0.0 -69.9619918508155,41.89250036852456,0.0 -69.96210851488935,41.89252125135471,0.0 -69.96218433516695,41.89252930249021,0.0 -69.96221414456002,41.89252397334325,0.0 -69.96219591160114,41.89250562712207,0.0 -69.9621308788866,41.892475514069275,0.0 -69.96202347838214,41.89243568626594,0.0 -69.96188102936658,41.89238885780529,0.0 -69.9617132396052,41.89233821986014,0.0 -69.9615315437546,41.89228722323902,0.0 -69.96134832409328,41.89223934324173,0.0 -69.96117606668808,41.89219784283293,0.0 -69.96102651050282,41.892165550270676,0.0 -69.96090984743239,41.89214466634542,0.0 -69.96083402777201,41.89213661437161,0.0 -69.96080421844457,41.89214194316165,0.0</coordinates>
                        </LinearRing>
                    </outerBoundaryIs>
                </Polygon>
            </Placemark>
            <Placemark id="275">
                <name>AZ 115 EL 5.0 [IN CURRENT MASK]</name>
                <styleUrl>#5</styleUrl>
                <Polygon id="274">
                    <outerBoundaryIs>
                        <LinearRing id="278">
                            <coordinates>-69.96089370014987,41.89198114419135,0.0 -69.96090971518507,41.8920006037101,0.0 -69.96097097362491,41.892034822058584,0.0 -69.96107330091397,41.892081467245646,0.0 -69.96120972374793,41.89213736038107,0.0 -69.96137094525766,41.89219869233788,0.0 -69.96154597854283,41.892261283365386,0.0 -69.96172289538983,41.89232086795358,0.0 -69.96188963915569,41.89237338552988,0.0 -69.9620348464223,41.8924152571755,0.0 -69.96214862142305,41.89244362950481,0.0 -69.96222321045815,41.89245656909263,0.0 -69.96225353032897,41.8924531942066,0.0 -69.96223751477089,41.89243373487456,0.0 -69.96217625526998,41.89239951719918,0.0 -69.96207392666598,41.89235287299123,0.0 -69.96193750261551,41.892296980878605,0.0 -69.9617762803137,41.89223564971422,0.0 -69.9616012468731,41.89217305903643,0.0 -69.96142433054897,41.892113474261535,0.0 -69.96125758784417,41.89206095601214,0.0 -69.96111238189252,41.892019083387396,0.0 -69.96099860810826,41.891990710035266,0.0 -69.96092401986526,41.891977769655036,0.0 -69.96089370014987,41.89198114419135,0.0</coordinates>
                        </LinearRing>
                    </outerBoundaryIs>
                </Polygon>
            </Placemark>
            <Placemark id="281">
                <name>AZ 120 EL 5.0 [IN CURRENT MASK]</name>
                <styleUrl>#5</styleUrl>
                <Polygon id="280">
                    <outerBoundaryIs>
                        <LinearRing id="284">
                            <coordinates>-69.96100166738624,41.89182676250877,0.0 -69.96101534313875,41.89184718700757,0.0 -69.96107236207467,41.891885249488226,0.0 -69.96116883856281,41.891938355995556,0.0 -69.96129819803672,41.892002887320096,0.0 -69.96145162500116,41.89207444566503,0.0 -69.96161866375623,41.892148154373885,0.0 -69.96178793091086,41.89221899028631,0.0 -69.96194789113561,41.89228212606719,0.0 -69.96208764329042,41.892333259177406,0.0 -69.96219766335008,41.892368905068786,0.0 -69.96227045349026,41.892386634626405,0.0 -69.96230105308899,41.892385239683755,0.0 -69.96228737681015,41.89236481533751,0.0 -69.96223035672213,41.89232675345787,0.0 -69.9621338787648,41.892273647839,0.0 -69.96200451789828,41.892209117452296,0.0 -69.96185108999097,41.89213755984329,0.0 -69.96168405099539,41.89206385147124,0.0 -69.96151478436707,41.89199301540628,0.0 -69.96135482529442,41.89192987902438,0.0 -69.96121507460882,41.891878745025714,0.0 -69.96110505594176,41.89184309819649,0.0 -69.96103226674445,41.891825367902946,0.0 -69.96100166738624,41.89182676250877,0.0</coordinates>
                        </LinearRing>
                    </outerBoundaryIs>
                </Polygon>
            </Placemark>
            <Placemark id="287">
                <name>AZ 125 EL 5.0 [IN CURRENT MASK]</name>
                <styleUrl>#5</styleUrl>
                <Polygon id="286">
                    <outerBoundaryIs>
                        <LinearRing id="290">
                            <coordinates>-69.96112729836251,41.89167997300109,0.0 -69.96113853077328,41.891701207039866,0.0 -69.96119087630713,41.891742823974354,0.0 -69.96128076782313,41.89180198762693,0.0 -69.96140207952072,41.891874666013564,0.0 -69.9615465443607,41.89195590613814,0.0 -69.96170431740934,41.89204017155342,0.0 -69.96186464672591,41.892121719678784,0.0 -69.96201660608114,41.89219499315612,0.0 -69.96214983957536,41.892254998571374,0.0 -69.96225526740842,41.89229764673353,0.0 -69.96232570469525,41.892320031325006,0.0 -69.96235635114473,41.89232062693985,0.0 -69.9623451182202,41.89229939301976,0.0 -69.9622927714782,41.89225777660941,0.0 -69.96220287838342,41.89219861374606,0.0 -69.96208156515942,41.8921259362022,0.0 -69.96193709925441,41.89204469674817,0.0 -69.9617793258875,41.8919604316515,0.0 -69.9616189970847,41.89187888340746,0.0 -69.96146703893761,41.891805609405964,0.0 -69.96133380702217,41.8917456032015,0.0 -69.96122838071551,41.89170295419656,0.0 -69.96115794449372,41.89168056893457,0.0 -69.96112729836251,41.89167997300109,0.0</coordinates>
                        </LinearRing>
                    </outerBoundaryIs>
                </Polygon>
            </Placemark>
            <Placemark id="293">
                <name>AZ 130 EL 5.0 [IN CURRENT MASK]</name>
                <styleUrl>#5</styleUrl>
                <Polygon id="292">
                    <outerBoundaryIs>
                        <LinearRing id="296">
                            <coordinates>-69.9612696368809,41.89154189276901,0.0 -69.9612783404856,41.89156377474803,0.0 -69.96132561428888,41.891608629409845,0.0 -69.96140823678175,41.891673399938995,0.0 -69.96152057754175,41.89175367226256,0.0 -69.96165498089296,41.89184397588037,0.0 -69.96180228758448,41.891938156690344,0.0 -69.96195245894731,41.89202979639638,0.0 -69.96209526100273,41.892112649912555,0.0 -69.96222096190404,41.8921810709531,0.0 -69.96232099517866,41.892230396805566,0.0 -69.96238854356302,41.89225726606857,0.0 -69.962419003631,41.89225984770603,0.0 -69.96241029954066,41.89223796581316,0.0 -69.96236302450994,41.892193111596185,0.0 -69.96228040037666,41.89212834175142,0.0 -69.96216805800285,41.89204807016837,0.0 -69.96203365349682,41.89195776714881,0.0 -69.96188634641894,41.891863586634514,0.0 -69.96173617554172,41.89177194684235,0.0 -69.96159337471376,41.89168909288132,0.0 -69.96146767545285,41.891620671156396,0.0 -69.96136764379206,41.8915713445634,0.0 -69.9613000965625,41.89154447470215,0.0 -69.9612696368809,41.89154189276901,0.0</coordinates>
                        </LinearRing>
                    </outerBoundaryIs>
                </Polygon>
            </Placemark>
            <Placemark id="299">
                <name>AZ 135 EL 5.0 [IN CURRENT MASK]</name>
                <styleUrl>#5</styleUrl>
                <Polygon id="298">
                    <outerBoundaryIs>
                        <LinearRing id="302">
                            <coordinates>-69.96142759961634,41.89141357262676,0.0 -69.96143370819523,41.89143593601638,0.0 -69.9614755505389,41.89148368704141,0.0 -69.96155027528161,41.8915535715119,0.0 -69.96165279022068,41.89164082685901,0.0 -69.96177610929747,41.89173950671169,0.0 -69.96191182864153,41.89184288614898,0.0 -69.9620506992481,41.89194392000623,0.0 -69.96218325727057,41.89203572299861,0.0 -69.96230046897797,41.89211203894041,0.0 -69.96239434642109,41.892167667083996,0.0 -69.96245849184226,41.89219881652664,0.0 -69.9624885337162,41.8922033645374,0.0 -69.9624824246946,41.89218100120368,0.0 -69.96244058114144,41.892133250544155,0.0 -69.96236585474654,41.892063366650824,0.0 -69.96226333815527,41.891976111937886,0.0 -69.96214001786898,41.89187743260645,0.0 -69.96200429808219,41.89177405343785,0.0 -69.96186542791833,41.891673019524696,0.0 -69.96173287110534,41.89158121616682,0.0 -69.96161566105013,41.891504899647856,0.0 -69.96152178525921,41.891449270870105,0.0 -69.96145764104755,41.8914181209062,0.0 -69.96142759961634,41.89141357262676,0.0</coordinates>
                        </LinearRing>
                    </outerBoundaryIs>
                </Polygon>
            </Placemark>
            <Placemark id="305">
                <name>AZ 140 EL 5.0 [IN CURRENT MASK]</name>
                <styleUrl>#5</styleUrl>
                <Polygon id="304">
                    <outerBoundaryIs>
                        <LinearRing id="308">
                            <coordinates>-69.96159998436256,41.8912959891065,0.0 -69.9616034514438,41.891318663714515,0.0 -69.96163954393455,41.89136894769895,0.0 -69.96170580230655,41.89144341426058,0.0 -69.96179771132249,41.89153698857922,0.0 -69.96190900769868,41.89164329366708,0.0 -69.96203210689363,41.89175508496396,0.0 -69.96215861994915,41.891864744053876,0.0 -69.962279925171,41.891964797853966,0.0 -69.9623877556934,41.89204842789192,0.0 -69.96247476288325,41.8921099349659,0.0 -69.96253501718044,41.89214512752308,0.0 -69.9625644122316,41.89215160729302,0.0 -69.96256094476402,41.892128932713916,0.0 -69.96252485111852,41.89207864901798,0.0 -69.96245859113272,41.89200418292717,0.0 -69.96236668047639,41.891910609135465,0.0 -69.96225538287277,41.891804304489504,0.0 -69.96213228319219,41.891692513431074,0.0 -69.96200577052299,41.891582854312254,0.0 -69.96188446645591,41.891482800223656,0.0 -69.9617766375473,41.8913991697149,0.0 -69.96168963199784,41.89133766211398,0.0 -69.9616293789281,41.89130246911488,0.0 -69.96159998436256,41.8912959891065,0.0</coordinates>
                        </LinearRing>
                    </outerBoundaryIs>
                </Polygon>
            </Placemark>
        </Folder>
        <Placemark id="311">
            <name>USGS Marconi GNSS station</name>
            <styleUrl>#312</styleUrl>
            <Point id="310">
                <coordinates>-69.9633227139,41.8928243333,0.0</coordinates>
            </Point>
        </Placemark>
        <Placemark id="316">
            <name>Confirmed true bearing to water (83.06 deg, 71.78m)</name>
            <styleUrl>#317</styleUrl>
            <LineString id="315">
                <coordinates>-69.9633227139,41.8928243333,0.0 -69.96246187627813,41.89290233298396,0.0</coordinates>
            </LineString>
        </Placemark>
        <Placemark id="320">
            <name>PRN29 observed bearing (112.98 deg)</name>
            <styleUrl>#321</styleUrl>
            <LineString id="319">
                <coordinates>-69.9633227139,41.8928243333,0.0 -69.96165434096751,41.89229767736389,0.0</coordinates>
            </LineString>
        </Placemark>
    </Document>
</kml>
