<?xml version="1.0" encoding="UTF-8"?>
<kml xmlns="http://www.opengis.net/kml/2.2" xmlns:gx="http://www.google.com/kml/ext/2.2">
    <Document id="1">
        <Style id="394">
            <IconStyle id="395">
                <colorMode>normal</colorMode>
                <scale>1</scale>
                <heading>0</heading>
                <Icon id="396">
                    <href>http://maps.google.com/mapfiles/kml/shapes/placemark_circle.png</href>
                </Icon>
            </IconStyle>
        </Style>
        <Style id="399">
            <LineStyle id="400">
                <color>ffffffff</color>
                <colorMode>normal</colorMode>
                <width>5</width>
            </LineStyle>
        </Style>
        <Folder id="11">
            <Style id="2">
                <LineStyle id="3">
                    <color>ff0000ff</color>
                    <colorMode>normal</colorMode>
                    <width>2</width>
                </LineStyle>
                <PolyStyle id="4">
                    <color>230000ff</color>
                    <colorMode>normal</colorMode>
                    <fill>1</fill>
                    <outline>1</outline>
                </PolyStyle>
            </Style>
            <name>RH = 2.12m (low_tide_max_reach_RH2.12m)</name>
            <Placemark id="13">
                <name>AZ 35 EL 5.0</name>
                <styleUrl>#2</styleUrl>
                <Polygon id="12">
                    <outerBoundaryIs>
                        <LinearRing id="16">
                            <coordinates>-69.96287701179361,41.893298157725816,0.0 -69.96288971320814,41.89329443440848,0.0 -69.96291460663892,41.89327708345331,0.0 -69.96294999561584,41.893247287292034,0.0 -69.96299346840735,41.893207076475434,0.0 -69.9630420623843,41.893159191296924,0.0 -69.96309246592638,41.893106895048,0.0 -69.96314124410917,41.89305375163147,0.0 -69.96318507279032,41.89300338268743,0.0 -69.96322096514157,41.89295922078337,0.0 -69.96324647518976,41.89292427548843,0.0 -69.9632598644975,41.89290092827401,0.0 -69.96326022062668,41.892890770218465,0.0 -69.96324751931401,41.892894493576634,0.0 -69.96322262612277,41.8929118446037,0.0 -69.96318723745888,41.89294164084867,0.0 -69.96314376497003,41.892981851738355,0.0 -69.96309517120424,41.89302973695975,0.0 -69.96304476772528,41.89308203320985,0.0 -69.9629959894406,41.89313517658556,0.0 -69.96295216051992,41.893185545457705,0.0 -69.96291626785563,41.893229707278046,0.0 -69.9628907575048,41.89326465249992,0.0 -69.9628773679859,41.89328799967146,0.0 -69.96287701179361,41.893298157725816,0.0</coordinates>
                        </LinearRing>
                    </outerBoundaryIs>
                </Polygon>
            </Placemark>
            <Placemark id="19">
                <name>AZ 40 EL 5.0</name>
                <styleUrl>#2</styleUrl>
                <Polygon id="18">
                    <outerBoundaryIs>
                        <LinearRing id="22">
                            <coordinates>-69.96282323094418,41.89326743827003,0.0 -69.96283631996121,41.893264553167405,0.0 -69.96286315017572,41.89324888328223,0.0 -69.9629018931286,41.893221496482504,0.0 -69.96294990851918,41.89318425912296,0.0 -69.96300392414595,41.893139708858776,0.0 -69.96306025891033,41.89309088171112,0.0 -69.9631150736836,41.89304110516882,0.0 -69.96316463293914,41.89299377142572,0.0 -69.96320555931992,41.89295210620694,0.0 -69.96323506379319,41.89291894893872,0.0 -69.96325113570984,41.89289655924343,0.0 -69.9632526798182,41.8928864629475,0.0 -69.96323959089746,41.8928893480974,0.0 -69.96321276092633,41.89290501807021,0.0 -69.96317401829869,41.892932404974395,0.0 -69.9631260032281,41.892969642427296,0.0 -69.9630719878303,41.893014192748694,0.0 -69.96301565314252,41.8930630199021,0.0 -69.96296083827296,41.893112796397105,0.0 -69.96291127877404,41.893160130052586,0.0 -69.96287035206802,41.893201795166874,0.0 -69.96284084727476,41.89323495234174,0.0 -69.96282477512914,41.89325734197983,0.0 -69.96282323094418,41.89326743827003,0.0</coordinates>
                        </LinearRing>
                    </outerBoundaryIs>
                </Polygon>
            </Placemark>
            <Placemark id="25">
                <name>AZ 45 EL 5.0</name>
                <styleUrl>#2</styleUrl>
                <Polygon id="24">
                    <outerBoundaryIs>
                        <LinearRing id="28">
                            <coordinates>-69.96277325154057,41.89323334650271,0.0 -69.96278662854219,41.89323132157205,0.0 -69.9628151913395,41.893217452014945,0.0 -69.96285699340113,41.89319268300842,0.0 -69.96290918595291,41.89315870250681,0.0 -69.96296821212596,41.89311782621371,0.0 -69.96303004936019,41.893072839773694,0.0 -69.96309048354149,41.8930268089372,0.0 -69.96314539618908,41.89298287063499,0.0 -69.96319104512068,41.892944019200044,0.0 -69.96322431946982,41.89291290230606,0.0 -69.96324295167729,41.892891640529356,0.0 -69.9632456720129,41.892881682832105,0.0 -69.96323229509906,41.89288370781603,0.0 -69.96320373254156,41.89289757747651,0.0 -69.96316193080753,41.892922346608756,0.0 -69.96310973858334,41.8929563272248,0.0 -69.96305071265012,41.8929972035904,0.0 -69.96298887550365,41.893042190041484,0.0 -69.96292844123457,41.89308822082472,0.0 -69.96287352834719,41.89313215902359,0.0 -69.96282787908797,41.89317101033276,0.0 -69.96279460441124,41.89320212711231,0.0 -69.96277597196396,41.89322338881654,0.0 -69.96277325154057,41.89323334650271,0.0</coordinates>
                        </LinearRing>
                    </outerBoundaryIs>
                </Polygon>
            </Placemark>
            <Placemark id="31">
                <name>AZ 50 EL 5.0</name>
                <styleUrl>#2</styleUrl>
                <Polygon id="30">
                    <outerBoundaryIs>
                        <LinearRing id="34">
                            <coordinates>-69.96272745395741,41.893196141887984,0.0 -69.96274101713423,41.89319499253996,0.0 -69.96277109512758,41.89318302886695,0.0 -69.96281563814902,41.893161066161646,0.0 -69.9628716106333,41.89313060113143,0.0 -69.96293519811562,41.89309370990424,0.0 -69.96300206718983,41.89305290654742,0.0 -69.96306766082941,41.89301097174061,0.0 -69.96312750894387,41.89297076327743,0.0 -69.96317753300599,41.892935021310045,0.0 -69.96321432399058,41.89290618160918,0.0 -69.96323537468531,41.8928862095663,0.0 -69.96323925054446,41.892876466251934,0.0 -69.96322568744425,41.8928776156586,0.0 -69.96319560967987,41.892889579450234,0.0 -69.96315106697841,41.892911542302365,0.0 -69.96309509481938,41.89294200746828,0.0 -69.96303150758044,41.89297889878367,0.0 -69.96296463860251,41.89301970215757,0.0 -69.96289904488633,41.893061636905756,0.0 -69.9628391965429,41.89310184525032,0.0 -69.9627891721608,41.893137587070854,0.0 -69.96275238085096,41.893166426636036,0.0 -69.96273132991284,41.89318639859071,0.0 -69.96272745395741,41.893196141887984,0.0</coordinates>
                        </LinearRing>
                    </outerBoundaryIs>
                </Polygon>
            </Placemark>
            <Placemark id="37">
                <name>AZ 55 EL 5.0</name>
                <styleUrl>#2</styleUrl>
                <Polygon id="36">
                    <outerBoundaryIs>
                        <LinearRing id="40">
                            <coordinates>-69.96268618674075,41.89315610758062,0.0 -69.96269983286678,41.893155842562024,0.0 -69.96273119713813,41.89314587582382,0.0 -69.96277814211044,41.89312688656941,0.0 -69.9628374685312,41.89310016886846,0.0 -69.9629051333716,41.89306754347247,0.0 -69.96297652536069,41.893031233737894,0.0 -69.96304677924218,41.89299371411079,0.0 -69.96311110733645,41.892957541498035,0.0 -69.9631651258113,41.89292518101671,0.0 -69.96320515342717,41.89289883799683,0.0 -69.96322846239944,41.89288030768728,0.0 -69.96323346428412,41.89287085290843,0.0 -69.96321981822119,41.89287111799021,0.0 -69.96318845416101,41.892881084861386,0.0 -69.96314150949134,41.89290007428287,0.0 -69.9630821833836,41.89292679214032,0.0 -69.96301451878274,41.892959417640235,0.0 -69.96294312689554,41.89299572739834,0.0 -69.96287287295094,41.89303324696228,0.0 -69.96280854464551,41.89306941944207,0.0 -69.96275452586801,41.8931017797563,0.0 -69.96271449793912,41.89312812261971,0.0 -69.9626911887273,41.893146652825315,0.0 -69.96268618674075,41.89315610758062,0.0</coordinates>
                        </LinearRing>
                    </outerBoundaryIs>
                </Polygon>
            </Placemark>
            <Placemark id="43">
                <name>AZ 60 EL 5.0</name>
                <styleUrl>#2</styleUrl>
                <Polygon id="42">
                    <outerBoundaryIs>
                        <LinearRing id="46">
                            <coordinates>-69.96264976395543,41.893113548270875,0.0 -69.96266338917371,41.89311416959813,0.0 -69.96269580101621,41.893106275647135,0.0 -69.96274479065075,41.893090404362994,0.0 -69.96280701948709,41.89306763732895,0.0 -69.96287824670378,41.89303952606314,0.0 -69.9629536182609,41.89300798628996,0.0 -69.96302799770096,41.89297516738982,0.0 -69.9630963161928,41.89294330592319,0.0 -69.96315391796279,41.89291457321095,0.0 -69.96319687757305,41.892890927358536,0.0 -69.96322226742626,41.8928739798093,0.0 -69.9632283572687,41.89286488552263,0.0 -69.96321473209811,41.892864264262165,0.0 -69.96318232044256,41.89287215835908,0.0 -69.96313333108414,41.89288802982916,0.0 -69.96307110253909,41.89291079703937,0.0 -69.96299987555082,41.89293890842436,0.0 -69.96292450409805,41.89297044822779,0.0 -69.96285012461031,41.89300326706113,0.0 -69.96278180593153,41.89303512838185,0.0 -69.96272420388544,41.89306386090814,0.0 -69.96268124398387,41.89308750658441,0.0 -69.96265585390223,41.89310445401446,0.0 -69.96264976395543,41.893113548270875,0.0</coordinates>
                        </LinearRing>
                    </outerBoundaryIs>
                </Polygon>
            </Placemark>
            <Placemark id="49">
                <name>AZ 65 EL 5.0</name>
                <styleUrl>#2</styleUrl>
                <Polygon id="48">
                    <outerBoundaryIs>
                        <LinearRing id="52">
                            <coordinates>-69.96261846279492,41.89306878786552,0.0 -69.96263196340807,41.893070290809305,0.0 -69.9626651761429,41.893064529722416,0.0 -69.96271583759075,41.8930518971977,0.0 -69.96278049523356,41.89303325410058,0.0 -69.96285474273378,41.893009870907925,0.0 -69.96293352022596,41.89298334113234,0.0 -69.96301145914383,41.8929554727305,0.0 -69.963083248082,41.89292816489485,0.0 -69.9631439947587,41.892903278624935,0.0 -69.96318955941236,41.89288250989924,0.0 -69.96321683691319,41.892867274091444,0.0 -69.96322396836561,41.89285860951002,0.0 -69.96321046778327,41.89285710663558,0.0 -69.96317725520547,41.89286286787959,0.0 -69.96312659399881,41.8928755006071,0.0 -69.96306193661671,41.89289414389835,0.0 -69.96298768932687,41.89291752722447,0.0 -69.96290891193836,41.89294405703707,0.0 -69.96283097298968,41.89297192536958,0.0 -69.96275918389446,41.89299923304811,0.0 -69.96269843697658,41.89302411911521,0.0 -69.96265287206221,41.893044887646795,0.0 -69.962625594351,41.89306012332113,0.0 -69.96261846279492,41.89306878786552,0.0</coordinates>
                        </LinearRing>
                    </outerBoundaryIs>
                </Polygon>
            </Placemark>
            <Placemark id="55">
                <name>AZ 70 EL 5.0</name>
                <styleUrl>#2</styleUrl>
                <Polygon id="54">
                    <outerBoundaryIs>
                        <LinearRing id="58">
                            <coordinates>-69.96259252147193,41.89302216702253,0.0 -69.96260579473133,41.89302454014382,0.0 -69.96263955558528,41.89302095576525,0.0 -69.96269150327517,41.89301165813968,0.0 -69.96275809763189,41.892997280863234,0.0 -69.96283480033789,41.8929788037026,0.0 -69.96291638421194,41.89295748583109,0.0 -69.96299728943788,41.892934780022074,0.0 -69.96307200245954,41.892912233645966,0.0 -69.96313543172022,41.892891383217645,0.0 -69.96318325464048,41.89287364968108,0.0 -69.96321221218953,41.892860241568386,0.0 -69.96322033097685,41.89285207263494,0.0 -69.96320705773046,41.89284969958441,0.0 -69.96317329699887,41.8928532841292,0.0 -69.96312134950793,41.89286258197188,0.0 -69.9630547553734,41.8928769594582,0.0 -69.96297805285333,41.89289543676521,0.0 -69.96289646907911,41.892916754680364,0.0 -69.96281556384018,41.89293946041861,0.0 -69.96274085069614,41.892962006628494,0.0 -69.96267742123653,41.89298285683968,0.0 -69.96262959809407,41.8930005901664,0.0 -69.96260064035908,41.89301399813272,0.0 -69.96259252147193,41.89302216702253,0.0</coordinates>
                        </LinearRing>
                    </outerBoundaryIs>
                </Polygon>
            </Placemark>
            <Placemark id="61">
                <name>AZ 75 EL 5.0</name>
                <styleUrl>#2</styleUrl>
                <Polygon id="60">
                    <outerBoundaryIs>
                        <LinearRing id="64">
                            <coordinates>-69.96257213740573,41.89297404055832,0.0 -69.96258508229351,41.892977265795494,0.0 -69.96261913432282,41.892975885403146,0.0 -69.96267197289573,41.89296999343545,0.0 -69.96273999713576,41.89295999139745,0.0 -69.9628185712857,41.89294656088922,0.0 -69.96290234063149,41.89293061716198,0.0 -69.9629855964214,41.89291324674944,0.0 -69.9630626649104,41.89289563342353,0.0 -69.9631282940167,41.89287897752063,0.0 -69.96317801124023,41.892864414135836,0.0 -69.96320842845203,41.89285293576198,0.0 -69.96321747278498,41.89284532464703,0.0 -69.96320452789199,41.892842099480866,0.0 -69.96317047594665,41.892843480046146,0.0 -69.9631176375244,41.89284937224235,0.0 -69.96304961346132,41.89285937450322,0.0 -69.96297103946722,41.89287280516894,0.0 -69.96288727021438,41.89288874894609,0.0 -69.96280401442966,41.89290611928764,0.0 -69.9627269458567,41.8929237324406,0.0 -69.96266131659975,41.89294038811499,0.0 -69.96261159919928,41.89295495127693,0.0 -69.96258118183164,41.8929664294933,0.0 -69.96257213740573,41.89297404055832,0.0</coordinates>
                        </LinearRing>
                    </outerBoundaryIs>
                </Polygon>
            </Placemark>
            <Placemark id="67">
                <name>AZ 80 EL 5.0</name>
                <styleUrl>#2</styleUrl>
                <Polygon id="66">
                    <outerBoundaryIs>
                        <LinearRing id="70">
                            <coordinates>-69.96255746571993,41.89292477474734,0.0 -69.96256998371786,41.89292882755365,0.0 -69.9626040677638,41.892929661651586,0.0 -69.96265739508206,41.89292722018105,0.0 -69.96272633149424,41.89292166950059,0.0 -69.96280617908516,41.89291338785667,0.0 -69.96289149636138,41.89290293961299,0.0 -69.96297646908317,41.89289103679455,0.0 -69.96305530649768,41.89287849056572,0.0 -69.96312263596967,41.89286615594897,0.0 -69.96317386911666,41.89285487355171,0.0 -69.96320551449696,41.89284541227389,0.0 -69.96321541554232,41.892838416902585,0.0 -69.96320289752116,41.89283436416639,0.0 -69.96316881351824,41.89283353024551,0.0 -69.96311548629775,41.89283597195265,0.0 -69.96304655001188,41.892841522865844,0.0 -69.96296670254196,41.89284980467627,0.0 -69.96288138534902,41.89286025297561,0.0 -69.96279641265046,41.892872155723964,0.0 -69.96271757519293,41.89288470177572,0.0 -69.96265024562317,41.892897036155865,0.0 -69.96259901234987,41.892908318320394,0.0 -69.96256736684855,41.89291777943172,0.0 -69.96255746571993,41.89292477474734,0.0</coordinates>
                        </LinearRing>
                    </outerBoundaryIs>
                </Polygon>
            </Placemark>
            <Placemark id="73">
                <name>AZ 85 EL 5.0</name>
                <styleUrl>#2</styleUrl>
                <Polygon id="72">
                    <outerBoundaryIs>
                        <LinearRing id="76">
                            <coordinates>-69.96254861806224,41.89287474453437,0.0 -69.96256061390143,41.89287959406478,0.0 -69.96259447056279,41.89288263630334,0.0 -69.96264788077072,41.89288366390865,0.0 -69.96271720470362,41.89288260682705,0.0 -69.96279771804286,41.89287953707301,0.0 -69.96288393392919,41.892874663827875,0.0 -69.96296997688532,41.89286831918921,0.0 -69.96304998322192,41.89286093554042,0.0 -69.96311850063947,41.892853016082825,0.0 -69.96317085979338,41.892845100538466,0.0 -69.96320349250101,41.892837728362494,0.0 -69.96321417490549,41.89283140197379,0.0 -69.96320217902573,41.89282655251141,0.0 -69.96316832236515,41.89282351045135,0.0 -69.96311491219915,41.89282248308717,0.0 -69.96304558833808,41.89282354040796,0.0 -69.96296507508134,41.89282661033514,0.0 -69.96287885926607,41.89283148364096,0.0 -69.96279281635051,41.89283782821161,0.0 -69.96271281001313,41.8928452116819,0.0 -69.96264429255365,41.89285313089835,0.0 -69.9625919333279,41.892861046203535,0.0 -69.96255930053778,41.89286841820637,0.0 -69.96254861806224,41.89287474453437,0.0</coordinates>
                        </LinearRing>
                    </outerBoundaryIs>
                </Polygon>
            </Placemark>
            <Placemark id="79">
                <name>AZ 90 EL 5.0</name>
                <styleUrl>#2</styleUrl>
                <Polygon id="78">
                    <outerBoundaryIs>
                        <LinearRing id="82">
                            <coordinates>-69.96254566175521,41.89282433068087,0.0 -69.96255704414118,41.89282994002686,0.0 -69.96259041574844,41.89283516725105,0.0 -69.96264350236126,41.89283965610905,0.0 -69.96271268621621,41.892843100668436,0.0 -69.96279325254638,41.892845266163995,0.0 -69.96287971088539,41.892846005003086,0.0 -69.96296616923465,41.89284526682856,0.0 -69.96304673559487,41.892843101952266,0.0 -69.9631159194976,41.89283965792465,0.0 -69.96316900617268,41.8928351694747,0.0 -69.96320237785244,41.89282994250702,0.0 -69.96321376031622,41.892824333248505,0.0 -69.96320237787357,41.892818723967366,0.0 -69.96316900622483,41.89281349692034,0.0 -69.96311591959683,41.89280900830435,0.0 -69.96304673575706,41.89280556398698,0.0 -69.96296616946836,41.892803398668605,0.0 -69.96287971118602,41.892802659894365,0.0 -69.96279325289343,41.89280339800405,0.0 -69.9627126865747,41.89280556270317,0.0 -69.96264350268717,41.892809006488754,0.0 -69.96259041599691,41.8928134946967,0.0 -69.96255704427566,41.89281872148721,0.0 -69.96254566175521,41.89282433068087,0.0</coordinates>
                        </LinearRing>
                    </outerBoundaryIs>
                </Polygon>
            </Placemark>
            <Placemark id="85">
                <name>AZ 95 EL 5.0</name>
                <styleUrl>#2</styleUrl>
                <Polygon id="84">
                    <outerBoundaryIs>
                        <LinearRing id="88">
                            <coordinates>-69.96254861928419,41.89277391686715,0.0 -69.96255930159165,41.89278024333763,0.0 -69.96259193416803,41.89278761576349,0.0 -69.96264429316543,41.89279553170877,0.0 -69.96271281041187,41.892803451691,0.0 -69.96279281657445,41.89281083595242,0.0 -69.96287885936546,41.89281718124993,0.0 -69.96296507510684,41.89282205515523,0.0 -69.9630455883312,41.89282512552579,0.0 -69.96311491218711,41.892826183138204,0.0 -69.96316832236117,41.89282515594186,0.0 -69.9632021790341,41.89282211396256,0.0 -69.96321417492952,41.892817264524,0.0 -69.963203492551,41.89281093811421,0.0 -69.96317085989213,41.89280356586149,0.0 -69.96311850082289,41.89279565015537,0.0 -69.9630499835345,41.89278773041429,0.0 -69.96296997737115,41.892780346331385,0.0 -69.96288393462069,41.89277400110188,0.0 -69.96279771895037,41.89276912713588,0.0 -69.9627172058085,41.8927660565922,0.0 -69.96264788202444,41.892764998740596,0.0 -69.96259447189232,41.8927660256958,0.0 -69.96256061522017,41.89276906749661,0.0 -69.96254861928419,41.89277391686715,0.0</coordinates>
                        </LinearRing>
                    </outerBoundaryIs>
                </Polygon>
            </Placemark>
            <Placemark id="91">
                <name>AZ 100 EL 5.0 [IN CURRENT MASK]</name>
                <styleUrl>#2</styleUrl>
                <Polygon id="90">
                    <outerBoundaryIs>
                        <LinearRing id="94">
                            <coordinates>-69.9625574681267,41.89272388677233,0.0 -69.96256736905875,41.89273088221857,0.0 -69.96259901425306,41.89274034373595,0.0 -69.96265024715406,41.892751626521026,0.0 -69.96271757633681,41.89276396164742,0.0 -69.96279641343857,41.89277650847301,0.0 -69.9628813858454,41.89278841193469,0.0 -69.96296670282591,41.89279886082418,0.0 -69.96304655016053,41.89280714307252,0.0 -69.96311548637328,41.89281269427479,0.0 -69.96316881356256,41.89281513614901,0.0 -69.96320289755879,41.892814302309084,0.0 -69.96321541558963,41.89281024959753,0.0 -69.96320551457433,41.89280325420695,0.0 -69.963173869259,41.89279379285609,0.0 -69.96312263623167,41.892782510303725,0.0 -69.96305530695113,41.892770175413936,0.0 -69.96297646980635,41.89275762876541,0.0 -69.96289149742275,41.89274572537384,0.0 -69.96280618052552,41.892735276428674,0.0 -69.9627263333119,41.89272699401383,0.0 -69.96265739722548,41.89272144257882,0.0 -69.96260407013398,41.892719000468034,0.0 -69.96256998618078,41.89271983413087,0.0 -69.9625574681267,41.89272388677233,0.0</coordinates>
                        </LinearRing>
                    </outerBoundaryIs>
                </Polygon>
            </Placemark>
            <Placemark id="97">
                <name>AZ 105 EL 5.0 [IN CURRENT MASK]</name>
                <styleUrl>#2</styleUrl>
                <Polygon id="96">
                    <outerBoundaryIs>
                        <LinearRing id="100">
                            <coordinates>-69.96257214092421,41.89267462115429,0.0 -69.962581185131,41.892682232336405,0.0 -69.96261160210771,41.8926937109361,0.0 -69.96266131900325,41.892708274690015,0.0 -69.96272694771099,41.892724931080174,0.0 -69.96280401575801,41.89274254497826,0.0 -69.96288727109268,41.89275991600896,0.0 -69.96297104000098,41.89277586035815,0.0 -69.96304961376097,41.89278929144974,0.0 -69.96311763768519,41.89279929399279,0.0 -69.96317047603793,41.89280518635278,0.0 -69.96320452795774,41.89280656699796,0.0 -69.96321747285415,41.89280334185689,0.0 -69.9632084285544,41.892795730724714,0.0 -69.96317801142183,41.892784252282524,0.0 -69.96312829434935,41.892769688751436,0.0 -69.96306266549097,41.892753032589795,0.0 -69.96298559735996,41.892735418864646,0.0 -69.96290234203049,41.89271804790496,0.0 -69.96281857321516,41.892702103505854,0.0 -69.962739999611,41.892688672256774,0.0 -69.96267197586373,41.89267866949086,0.0 -69.96261913766163,41.892672776902366,0.0 -69.96258508582581,41.89267139608425,0.0 -69.96257214092421,41.89267462115429,0.0</coordinates>
                        </LinearRing>
                    </outerBoundaryIs>
                </Polygon>
            </Placemark>
            <Placemark id="103">
                <name>AZ 110 EL 5.0 [IN CURRENT MASK]</name>
                <styleUrl>#2</styleUrl>
                <Polygon id="102">
                    <outerBoundaryIs>
                        <LinearRing id="106">
                            <coordinates>-69.96259252599519,41.892626494951955,0.0 -69.96260064464735,41.89263466394406,0.0 -69.96262960191937,41.8926480722659,0.0 -69.96267742443959,41.892665806147896,0.0 -69.96274085320448,41.89268665703434,0.0 -69.9628155656684,41.892709203950076,0.0 -69.96289647031264,41.89273191034346,0.0 -69.96297805362069,41.892753228804246,0.0 -69.96305475581497,41.89277170651889,0.0 -69.96312134974909,41.89278608427634,0.0 -69.96317329713432,41.89279538227712,0.0 -69.96320705782233,41.89279896689955,0.0 -69.96322033106578,41.89279659387412,0.0 -69.96321221231378,41.89278842492568,0.0 -69.96318325485584,41.8927750167502,0.0 -69.96313543211342,41.892757283078055,0.0 -69.96307200314959,41.89273643240874,0.0 -69.9629972905633,41.892713885659205,0.0 -69.96291638590604,41.89269117933658,0.0 -69.96283480269783,41.89266986083215,0.0 -69.96275810068948,41.89265138297114,0.0 -69.96269150697756,41.89263700500384,0.0 -69.96263955979127,41.89262770678595,0.0 -69.96260579922564,41.89262412199731,0.0 -69.96259252599519,41.892626494951955,0.0</coordinates>
                        </LinearRing>
                    </outerBoundaryIs>
                </Polygon>
            </Placemark>
            <Placemark id="109">
                <name>AZ 115 EL 5.0 [IN CURRENT MASK]</name>
                <styleUrl>#2</styleUrl>
                <Polygon id="108">
                    <outerBoundaryIs>
                        <LinearRing id="112">
                            <coordinates>-69.96261846818554,41.89257987443178,0.0 -69.9626255994979,41.89258853906289,0.0 -69.96265287668815,41.89260377506071,0.0 -69.96269844088188,41.89262454410383,0.0 -69.96275918698062,41.89264943079689,0.0 -69.96283097526222,41.89267673913264,0.0 -69.96290891348963,41.89270460807744,0.0 -69.9629876903045,41.8927311384018,0.0 -69.96306193718675,41.89275452211168,0.0 -69.96312659431302,41.89277316565921,0.0 -69.96317725538097,41.892785798536856,0.0 -69.96321046789845,41.89279155985513,0.0 -69.96322396847158,41.89279005700538,0.0 -69.96321683705555,41.89278139241131,0.0 -69.96318955965492,41.89276615654695,0.0 -69.96314399520048,41.89274538769796,0.0 -69.96308324886056,41.892720501207684,0.0 -69.96301146042191,41.892693193029054,0.0 -69.9629335221637,41.89266532415359,0.0 -69.96285474545249,41.89263879379221,0.0 -69.96278049878062,41.89261540994887,0.0 -69.96271584191506,41.8925967662072,0.0 -69.9626651810883,41.892584133126775,0.0 -69.96263196872785,41.892578371651396,0.0 -69.96261846818554,41.89257987443178,0.0</coordinates>
                        </LinearRing>
                    </outerBoundaryIs>
                </Polygon>
            </Placemark>
            <Placemark id="115">
                <name>AZ 120 EL 5.0 [IN CURRENT MASK]</name>
                <styleUrl>#2</styleUrl>
                <Polygon id="114">
                    <outerBoundaryIs>
                        <LinearRing id="118">
                            <coordinates>-69.96264977004961,41.89253511440042,0.0 -69.96265585975137,41.89254420872762,0.0 -69.9626812492699,41.892561156445865,0.0 -69.96272420837433,41.89258480258423,0.0 -69.96278180950176,41.89261353567991,0.0 -69.96285012725814,41.8926453976013,0.0 -69.96292450591993,41.892678216996565,0.0 -69.96299987670903,41.89270975727146,0.0 -69.96307110322029,41.892737869011405,0.0 -69.96313333146185,41.89276063645968,0.0 -69.96318232065279,41.89277650806993,0.0 -69.96321473223311,41.892784402236686,0.0 -69.96322835738852,41.89278378100012,0.0 -69.96322226758241,41.89277468670317,0.0 -69.96319687783544,41.8927577391041,0.0 -69.96315391843973,41.89273409314186,0.0 -69.96309631703619,41.89270536023215,0.0 -69.96302799909287,41.892673498456666,0.0 -69.9629536203834,41.89264067912819,0.0 -69.96287824969865,41.89260913882304,0.0 -69.96280702341582,41.892581026963924,0.0 -69.96274479546555,41.892558259339495,0.0 -69.96269580655073,41.892542387543315,0.0 -69.96266339515734,41.89253449323064,0.0 -69.96264977004961,41.89253511440042,0.0</coordinates>
                        </LinearRing>
                    </outerBoundaryIs>
                </Polygon>
            </Placemark>
            <Placemark id="121">
                <name>AZ 125 EL 5.0 [IN CURRENT MASK]</name>
                <styleUrl>#2</styleUrl>
                <Polygon id="120">
                    <outerBoundaryIs>
                        <LinearRing id="124">
                            <coordinates>-69.96268619335333,41.89249255550445,0.0 -69.96269119510096,41.89250201031478,0.0 -69.96271450372463,41.89252054077109,0.0 -69.96275453080409,41.89254688404299,0.0 -69.96280854859131,41.89257924486443,0.0 -69.96287287589358,41.89261541788221,0.0 -69.96294312893266,41.89265293795167,0.0 -69.96301452008633,41.89268924813575,0.0 -69.96308218415528,41.89272187395777,0.0 -69.96314150992109,41.89274859203227,0.0 -69.9631884543996,41.892767581582255,0.0 -69.96321981837193,41.89277754851794,0.0 -69.96323346441412,41.89277781362245,0.0 -69.96322846256463,41.89276835883566,0.0 -69.96320515370142,41.89274982848328,0.0 -69.96316512630892,41.89272348536784,0.0 -69.96311110821907,41.8926911247135,0.0 -69.96304678070564,41.89265495182868,0.0 -69.96297652760346,41.8926174318224,0.0 -69.96290513655165,41.89258112161478,0.0 -69.96283747272224,41.89254849568882,0.0 -69.96277814726946,41.89252177745786,0.0 -69.9627312030936,41.89250278774078,0.0 -69.96269983933242,41.892492820672125,0.0 -69.96268619335333,41.89249255550445,0.0</coordinates>
                        </LinearRing>
                    </outerBoundaryIs>
                </Polygon>
            </Placemark>
            <Placemark id="127">
                <name>AZ 130 EL 5.0 [IN CURRENT MASK]</name>
                <styleUrl>#2</styleUrl>
                <Polygon id="126">
                    <outerBoundaryIs>
                        <LinearRing id="130">
                            <coordinates>-69.96272746088745,41.892452521638056,0.0 -69.96273133661735,41.89246226497524,0.0 -69.96275238696015,41.892482237142076,0.0 -69.96278917739409,41.89251107705958,0.0 -69.9628392007444,41.89254681932149,0.0 -69.96289904803439,41.892587028137065,0.0 -69.962964640793,41.892628963330104,0.0 -69.9630315089898,41.892669767080655,0.0 -69.96309509565808,41.89270665868226,0.0 -69.96315106744713,41.89273712404203,0.0 -69.96319560993955,41.892759087009615,0.0 -69.96322568760613,41.892771050859736,0.0 -69.96323925068072,41.89277220028763,0.0 -69.96323537485453,41.89276245696753,0.0 -69.96321432426836,41.8927424848889,0.0 -69.96317753350917,41.89271364510709,0.0 -69.96312750983888,41.892677902992006,0.0 -69.96306766231994,41.892637694295054,0.0 -69.96300206948473,41.892595759160635,0.0 -69.9629352013842,41.892554955392995,0.0 -69.96287161495931,41.892518063703186,0.0 -69.9628156434955,41.89248759820772,0.0 -69.96277110132306,41.892465635093316,0.0 -69.96274102388544,41.89245367112458,0.0 -69.96272746088745,41.892452521638056,0.0</coordinates>
                        </LinearRing>
                    </outerBoundaryIs>
                </Polygon>
            </Placemark>
            <Placemark id="133">
                <name>AZ 135 EL 5.0</name>
                <styleUrl>#2</styleUrl>
                <Polygon id="132">
                    <outerBoundaryIs>
                        <LinearRing id="136">
                            <coordinates>-69.96277325857751,41.89241531747815,0.0 -69.9627759787956,41.89242527519019,0.0 -69.96279461065849,41.89244653706817,0.0 -69.96282788445947,41.89247765414299,0.0 -69.96287353267671,41.89251650582602,0.0 -69.96292844449238,41.89256044442669,0.0 -69.96298887778094,41.89260647559166,0.0 -69.96305071412243,41.89265146236777,0.0 -69.96310973946358,41.89269233898169,0.0 -69.96316193130097,41.89272631976696,0.0 -69.96320373281443,41.892751089000676,0.0 -69.96323229526716,41.89276495871305,0.0 -69.96324567215125,41.8927669837164,0.0 -69.96324295184539,41.892757026015445,0.0 -69.9632243197427,41.892735764209945,0.0 -69.96319104561412,41.892704647249545,0.0 -69.9631453970693,41.89266579569225,0.0 -69.96309048501381,41.89262185719494,0.0 -69.96303005163747,41.892575826083245,0.0 -69.96296821538377,41.89253083929605,0.0 -69.96290919028243,41.89248996260966,0.0 -69.96285699877262,41.89245598170995,0.0 -69.96281519758675,41.8924312123505,0.0 -69.96278663537383,41.892417342534785,0.0 -69.96277325857751,41.89241531747815,0.0</coordinates>
                        </LinearRing>
                    </outerBoundaryIs>
                </Polygon>
            </Placemark>
        </Folder>
        <Folder id="138">
            <Style id="5">
                <LineStyle id="6">
                    <color>ff00ffff</color>
                    <colorMode>normal</colorMode>
                    <width>2</width>
                </LineStyle>
                <PolyStyle id="7">
                    <color>2300ffff</color>
                    <colorMode>normal</colorMode>
                    <fill>1</fill>
                    <outline>1</outline>
                </PolyStyle>
            </Style>
            <name>RH = 1.6m (typical_RH1.60m)</name>
            <Placemark id="140">
                <name>AZ 35 EL 5.0</name>
                <styleUrl>#5</styleUrl>
                <Polygon id="139">
                    <outerBoundaryIs>
                        <LinearRing id="143">
                            <coordinates>-69.96293785273728,41.89323347843698,0.0 -69.96294924823331,41.893230137928896,0.0 -69.96297158219413,41.893214570911695,0.0 -69.96300333257796,41.89318783824611,0.0 -69.96304233562341,41.893151761712396,0.0 -69.96308593331308,41.8931087998608,0.0 -69.96313115451947,41.89306188046709,0.0 -69.96317491748704,41.8930142010103,0.0 -69.96321423985005,41.89296901076991,0.0 -69.9632464418737,41.8929293893919,0.0 -69.96326932906848,41.892898037014426,0.0 -69.96328134173423,41.8928770902561,0.0 -69.9632816612446,41.89286797660731,0.0 -69.96327026583056,41.89287131714825,0.0 -69.96324793206256,41.89288688422333,0.0 -69.9632161819307,41.89291361695629,0.0 -69.96317717912886,41.892949693548836,0.0 -69.96313358160917,41.89299265543493,0.0 -69.96308836045357,41.89303957482961,0.0 -69.96304459740401,41.89308725425353,0.0 -69.96300527484819,41.89313244443604,0.0 -69.96297307257255,41.893172065746676,0.0 -69.96295018513416,41.893203418065326,0.0 -69.96293817229844,41.89322436478914,0.0 -69.96293785273728,41.89323347843698,0.0</coordinates>
                        </LinearRing>
                    </outerBoundaryIs>
                </Polygon>
            </Placemark>
            <Placemark id="146">
                <name>AZ 40 EL 5.0</name>
                <styleUrl>#5</styleUrl>
                <Polygon id="145">
                    <outerBoundaryIs>
                        <LinearRing id="149">
                            <coordinates>-69.96289141325997,41.893206952365645,0.0 -69.96290315650772,41.893204363889794,0.0 -69.96292722812022,41.89319030509995,0.0 -69.96296198763727,41.89316573407238,0.0 -69.96300506622909,41.89313232527362,0.0 -69.96305352813509,41.89309235545058,0.0 -69.96310407073807,41.893048548476045,0.0 -69.96315324963697,41.89300388972247,0.0 -69.96319771337888,41.89296142261392,0.0 -69.96323443185283,41.892924041220695,0.0 -69.96326090278163,41.89289429303139,0.0 -69.96327532224099,41.89287420534343,0.0 -69.96327670758699,41.892865147104175,0.0 -69.96326496441674,41.8928677356181,0.0 -69.96324089300013,41.89288179447847,0.0 -69.96320613374489,41.892906365590136,0.0 -69.96316305541063,41.89293977446405,0.0 -69.96311459368894,41.89297974433314,0.0 -69.96306405114764,41.89302355131229,0.0 -69.96301487217121,41.8930682100278,0.0 -69.96297040823342,41.89311067706583,0.0 -69.96293368949766,41.89314805837493,0.0 -69.96290721831129,41.893177806489106,0.0 -69.96289279866762,41.89319789413101,0.0 -69.96289141325997,41.893206952365645,0.0</coordinates>
                        </LinearRing>
                    </outerBoundaryIs>
                </Polygon>
            </Placemark>
            <Placemark id="152">
                <name>AZ 45 EL 5.0</name>
                <styleUrl>#5</styleUrl>
                <Polygon id="151">
                    <outerBoundaryIs>
                        <LinearRing id="155">
                            <coordinates>-69.96284825629978,41.89317751432092,0.0 -69.96286025792406,41.89317569757704,0.0 -69.96288588398349,41.893163254011036,0.0 -69.96292338808517,41.89314103162305,0.0 -69.96297021436023,41.89311054482201,0.0 -69.96302317164904,41.8930738712238,0.0 -69.96307865098062,41.893033510067724,0.0 -69.96313287152313,41.89299221189895,0.0 -69.96318213824327,41.89295279112374,0.0 -69.96322309371476,41.892917934211084,0.0 -69.96325294691626,41.892890016612085,0.0 -69.96326966342774,41.892870940874175,0.0 -69.96327210406587,41.892862006983215,0.0 -69.96326010251224,41.89286382376997,0.0 -69.96323447664585,41.892876267419176,0.0 -69.96319697280785,41.892898489908376,0.0 -69.9631501467965,41.89292897680154,0.0 -69.96309718970072,41.89296565045807,0.0 -69.9630417104398,41.89300601162309,0.0 -69.96298748982663,41.89304730974897,0.0 -69.96293822291345,41.89308673044099,0.0 -69.96289726717826,41.89312158725243,0.0 -69.96286741371308,41.89314950475931,0.0 -69.96285069700856,41.893168580438875,0.0 -69.96284825629978,41.89317751432092,0.0</coordinates>
                        </LinearRing>
                    </outerBoundaryIs>
                </Polygon>
            </Placemark>
            <Placemark id="158">
                <name>AZ 50 EL 5.0</name>
                <styleUrl>#5</styleUrl>
                <Polygon id="157">
                    <outerBoundaryIs>
                        <LinearRing id="161">
                            <coordinates>-69.96280871030817,41.893145388347925,0.0 -69.96282087896756,41.89314435716232,0.0 -69.96284786443898,41.893133623523475,0.0 -69.96288782768875,41.89311391890157,0.0 -69.96293804526168,41.893086586122244,0.0 -69.96299509488705,41.893053487858296,0.0 -69.96305508870756,41.893016879694635,0.0 -69.96311393823576,41.892979256415764,0.0 -69.96316763297973,41.89294318199065,0.0 -69.9632125137498,41.89291111484132,0.0 -69.96324552202138,41.89288524030276,0.0 -69.9632644083615,41.89286732169298,0.0 -69.96326788571682,41.89285858014269,0.0 -69.9632557171191,41.89285961137548,0.0 -69.96322873183198,41.892870345109806,0.0 -69.96318876883977,41.89289004984991,0.0 -69.96313855152864,41.89291738273848,0.0 -69.96308150209919,41.89295048107342,0.0 -69.96302150835618,41.89298708925083,0.0 -69.96296265876632,41.89302471248251,0.0 -69.96290896383805,41.89306078681214,0.0 -69.96286408281041,41.89309285384329,0.0 -69.96283107427702,41.893118728272604,0.0 -69.96281218774101,41.893136646811385,0.0 -69.96280871030817,41.893145388347925,0.0</coordinates>
                        </LinearRing>
                    </outerBoundaryIs>
                </Polygon>
            </Placemark>
            <Placemark id="164">
                <name>AZ 55 EL 5.0</name>
                <styleUrl>#5</styleUrl>
                <Polygon id="163">
                    <outerBoundaryIs>
                        <LinearRing id="167">
                            <coordinates>-69.9627730762531,41.893110818948585,0.0 -69.96278531933517,41.8931105811689,0.0 -69.96281345883796,41.8931016391466,0.0 -69.96285557708387,41.89308460225505,0.0 -69.96290880375972,41.893060631516825,0.0 -69.96296951153032,41.893031360485516,0.0 -69.96303356324218,41.892998783925194,0.0 -69.9630965938688,41.8929651218727,0.0 -69.96315430798221,41.89293266834638,0.0 -69.96320277247791,41.89290363501111,0.0 -69.96323868460499,41.892880000454134,0.0 -69.9632595970365,41.892863375344035,0.0 -69.96326408464402,41.89285489266298,0.0 -69.96325184161275,41.89285513049351,0.0 -69.96322370227993,41.89286407262283,0.0 -69.96318158427762,41.8928811096489,0.0 -69.96312835785375,41.892905080513096,0.0 -69.96306765027596,41.89293435162806,0.0 -69.9630035986461,41.89296692820733,0.0 -69.96294056796869,41.89300059020897,0.0 -69.96288285368531,41.893033043628265,0.0 -69.96283438894599,41.89306207682902,0.0 -69.96279847656695,41.89308571126005,0.0 -69.96277756394262,41.89310233628646,0.0 -69.9627730762531,41.893110818948585,0.0</coordinates>
                        </LinearRing>
                    </outerBoundaryIs>
                </Polygon>
            </Placemark>
            <Placemark id="170">
                <name>AZ 60 EL 5.0</name>
                <styleUrl>#5</styleUrl>
                <Polygon id="169">
                    <outerBoundaryIs>
                        <LinearRing id="173">
                            <coordinates>-69.96274162532855,41.89307406922066,0.0 -69.96275384965476,41.8930746266561,0.0 -69.9627829290258,41.89306754430419,0.0 -69.96282688171559,41.89305330480376,0.0 -69.96288271239871,41.8930328785383,0.0 -69.96294661628298,41.893007657509855,0.0 -69.96301423840589,41.89297936048026,0.0 -69.96308097042316,41.892949915842905,0.0 -69.9631422646619,41.89292133020652,0.0 -69.96319394403608,41.89289555164673,0.0 -69.96323248670394,41.89287433694471,0.0 -69.96325526606981,41.89285913186153,0.0 -69.96326072977591,41.89285097260807,0.0 -69.96324850548807,41.89285041522638,0.0 -69.9632194262675,41.89285749769575,0.0 -69.96317547379998,41.89287173734586,0.0 -69.96311964335132,41.89289216375312,0.0 -69.96305573965093,41.89291738487748,0.0 -69.96298811761201,41.892945681931415,0.0 -69.96292138555637,41.892975126515026,0.0 -69.96286009116714,41.893003712033966,0.0 -69.96280841157072,41.89302949044407,0.0 -69.96276986866837,41.893050705004285,0.0 -69.96274708911864,41.89306590999154,0.0 -69.96274162532855,41.89307406922066,0.0</coordinates>
                        </LinearRing>
                    </outerBoundaryIs>
                </Polygon>
            </Placemark>
            <Placemark id="176">
                <name>AZ 65 EL 5.0</name>
                <styleUrl>#5</styleUrl>
                <Polygon id="175">
                    <outerBoundaryIs>
                        <LinearRing id="179">
                            <coordinates>-69.96271459689063,41.89303541885527,0.0 -69.9627267094255,41.89303676726291,0.0 -69.96275650734928,41.89303159848172,0.0 -69.9628019599701,41.89302026474291,0.0 -69.96285996974753,41.893003538405765,0.0 -69.96292658339017,41.892982559326924,0.0 -69.96299726127143,41.89295875718516,0.0 -69.96306718680216,41.892933754054184,0.0 -69.9631315946755,41.892909253861596,0.0 -69.96318609561392,41.89288692626766,0.0 -69.96322697548796,41.892868292877324,0.0 -69.96325144842268,41.89285462354095,0.0 -69.96325784664499,41.892846849811974,0.0 -69.96324573413492,41.89284550146013,0.0 -69.96321593633753,41.8928506703678,0.0 -69.96317048391087,41.89286200426985,0.0 -69.96311247434329,41.892878730763265,0.0 -69.96304586087,41.89289970994954,0.0 -69.96297518307219,41.89292351212108,0.0 -69.96290525751664,41.89294851519626,0.0 -69.96284084951691,41.89297301526238,0.0 -69.96278634838434,41.89299534269307,0.0 -69.96274546830045,41.89301397592713,0.0 -69.96272099519638,41.893027645156074,0.0 -69.96271459689063,41.89303541885527,0.0</coordinates>
                        </LinearRing>
                    </outerBoundaryIs>
                </Polygon>
            </Placemark>
            <Placemark id="182">
                <name>AZ 70 EL 5.0</name>
                <styleUrl>#5</styleUrl>
                <Polygon id="181">
                    <outerBoundaryIs>
                        <LinearRing id="185">
                            <coordinates>-69.96269219663611,41.8929951620082,0.0 -69.96270410519531,41.892997291125326,0.0 -69.96273439488834,41.892994075251494,0.0 -69.96278100151282,41.89298573352982,0.0 -69.96284074888833,41.8929728344174,0.0 -69.96290956531209,41.892956256950555,0.0 -69.96298276104358,41.89293713084448,0.0 -69.96305534790665,41.89291675950817,0.0 -69.96312237922758,41.89289653122025,0.0 -69.96317928694248,41.892877824518465,0.0 -69.96322219290059,41.89286191425108,0.0 -69.96324817314964,41.89284988469341,0.0 -69.96325545719357,41.89284255565171,0.0 -69.96324354864484,41.89284042659154,0.0 -69.9632132590503,41.89284364259917,0.0 -69.96316665258595,41.892851984495614,0.0 -69.96310690538932,41.89286488377696,0.0 -69.96303808911523,41.89288146136162,0.0 -69.96296489346409,41.89290058750283,0.0 -69.96289230659055,41.89292095878217,0.0 -69.96282527517111,41.89294118693631,0.0 -69.96276836729609,41.89295989346331,0.0 -69.96272546115912,41.89297580356177,0.0 -69.9626994807604,41.89298783300161,0.0 -69.96269219663611,41.8929951620082,0.0</coordinates>
                        </LinearRing>
                    </outerBoundaryIs>
                </Polygon>
            </Placemark>
            <Placemark id="188">
                <name>AZ 75 EL 5.0</name>
                <styleUrl>#5</styleUrl>
                <Polygon id="187">
                    <outerBoundaryIs>
                        <LinearRing id="191">
                            <coordinates>-69.9626745950371,41.892953605061116,0.0 -69.96268620898906,41.89295649868327,0.0 -69.96271675992593,41.89295526019048,0.0 -69.9627641658451,41.892949973970076,0.0 -69.9628251960994,41.8929410002509,0.0 -69.96289569156365,41.8929289505591,0.0 -69.96297084807591,41.892914646048645,0.0 -69.9630455438366,41.89289906154424,0.0 -69.96311468845265,41.892883259109844,0.0 -69.9631735698395,41.89286831566914,0.0 -69.96321817534006,41.89285524961128,0.0 -69.9632454651774,41.89284495138444,0.0 -69.96325357960674,41.89283812280845,0.0 -69.96324196565061,41.89283522924345,0.0 -69.96321141478133,41.89283646787545,0.0 -69.96316400898341,41.892841754279786,0.0 -69.96310297887153,41.89285072817837,0.0 -69.96303248353273,41.892862777996925,0.0 -69.96295732709531,41.89287708254758,0.0 -69.96288263133879,41.892892666994804,0.0 -69.96281348665515,41.892908469290006,0.0 -69.96275460514704,41.892923412546786,0.0 -69.96270999950404,41.892936478425256,0.0 -69.96268270954127,41.8929467765253,0.0 -69.9626745950371,41.892953605061116,0.0</coordinates>
                        </LinearRing>
                    </outerBoundaryIs>
                </Polygon>
            </Placemark>
            <Placemark id="194">
                <name>AZ 80 EL 5.0</name>
                <styleUrl>#5</styleUrl>
                <Polygon id="193">
                    <outerBoundaryIs>
                        <LinearRing id="197">
                            <coordinates>-69.96266192604385,41.892911064289706,0.0 -69.96267315699949,41.89291470039409,0.0 -69.96270373666742,41.89291544870682,0.0 -69.96275158109034,41.89291325821737,0.0 -69.96281342974204,41.892908278184954,0.0 -69.96288506772896,41.89290084797183,0.0 -69.96296161303096,41.89289147392136,0.0 -69.96303784920548,41.89288079485511,0.0 -69.96310858088135,41.892869538539465,0.0 -69.96316898781522,41.89285847208792,0.0 -69.96321495338225,41.89284834967992,0.0 -69.96324334511515,41.89283986115955,0.0 -69.96325222817396,41.892833585018835,0.0 -69.96324099719962,41.89282994897087,0.0 -69.96321041756633,41.89282920080066,0.0 -69.9631625732221,41.89283139148058,0.0 -69.96310072467207,41.892836371700334,0.0 -69.96302908678256,41.89284380204747,0.0 -69.9629525415476,41.89285317614276,0.0 -69.96287630539177,41.892863855152584,0.0 -69.96280557368127,41.892875111325715,0.0 -69.96274516666868,41.89288617758679,0.0 -69.96269920099999,41.89289629980746,0.0 -69.9626708091697,41.89290478819379,0.0 -69.96266192604385,41.892911064289706,0.0</coordinates>
                        </LinearRing>
                    </outerBoundaryIs>
                </Polygon>
            </Placemark>
            <Placemark id="200">
                <name>AZ 85 EL 5.0</name>
                <styleUrl>#5</styleUrl>
                <Polygon id="199">
                    <outerBoundaryIs>
                        <LinearRing id="203">
                            <coordinates>-69.96265428606561,41.892867863456566,0.0 -69.96266504855107,41.89287221436968,0.0 -69.9626954242195,41.892874943791504,0.0 -69.96274334301924,41.89287586570213,0.0 -69.96280553935989,41.892874917255455,0.0 -69.96287777465784,41.89287216306732,0.0 -69.9629551261903,41.89286779081717,0.0 -69.96303232257242,41.892862098461755,0.0 -69.96310410299508,41.89285547393118,0.0 -69.96316557574116,41.89284836869056,0.0 -69.96321255154797,41.892841266969725,0.0 -69.96324182909771,41.89283465275844,0.0 -69.96325141318034,41.892828976818215,0.0 -69.96324065066223,41.89282462595985,0.0 -69.96321027499442,41.892821896681696,0.0 -69.96316235622845,41.89282097496519,0.0 -69.96310015994563,41.89282192360441,0.0 -69.96302792471407,41.89282467793189,0.0 -69.96295057323881,41.8928290502309,0.0 -69.96287337688935,41.892834742531555,0.0 -69.96280159646606,41.89284136691847,0.0 -69.96274012368623,41.89284847196497,0.0 -69.96269314782158,41.892855573493264,0.0 -69.96266387020545,41.89286218756517,0.0 -69.96265428606561,41.892867863456566,0.0</coordinates>
                        </LinearRing>
                    </outerBoundaryIs>
                </Polygon>
            </Placemark>
            <Placemark id="206">
                <name>AZ 90 EL 5.0</name>
                <styleUrl>#5</styleUrl>
                <Polygon id="205">
                    <outerBoundaryIs>
                        <LinearRing id="209">
                            <coordinates>-69.96265173323717,41.89282433134711,0.0 -69.96266194534431,41.89282936395535,0.0 -69.96269188583615,41.892834053712434,0.0 -69.96273951432102,41.892838081004896,0.0 -69.96280158499758,41.89284117135998,0.0 -69.9628738678506,41.89284311415562,0.0 -69.96295143691975,41.89284377697924,0.0 -69.9630290059966,41.89284311465531,0.0 -69.96310128887221,41.89284117232532,0.0 -69.9631633595847,41.892838082370105,0.0 -69.96321098811639,41.89283405538444,0.0 -69.96324092866276,41.89282936582023,0.0 -69.96325114082839,41.89282433327778,0.0 -69.96324092867565,41.89281930072173,0.0 -69.9632109881504,41.89281461110726,0.0 -69.96316335965331,41.892810584009595,0.0 -69.96310128898895,41.89280749384934,0.0 -69.96302900616934,41.89280555119631,0.0 -69.9629514371458,41.892804888424884,0.0 -69.96287386811457,41.89280555069663,0.0 -69.96280158527236,41.89280749288401,0.0 -69.96273951457209,41.892810582644415,0.0 -69.96269188602818,41.892814609435256,0.0 -69.96266194544843,41.89281929885684,0.0 -69.96265173323717,41.89282433134711,0.0</coordinates>
                        </LinearRing>
                    </outerBoundaryIs>
                </Polygon>
            </Placemark>
            <Placemark id="212">
                <name>AZ 95 EL 5.0</name>
                <styleUrl>#5</styleUrl>
                <Polygon id="211">
                    <outerBoundaryIs>
                        <LinearRing id="215">
                            <coordinates>-69.96265428697673,41.89278079926732,0.0 -69.9626638709864,41.89278647526906,0.0 -69.96269314843745,41.89279308966823,0.0 -69.9627401241266,41.89280019169052,0.0 -69.96280159674403,41.892807297325625,0.0 -69.96287337703582,41.89281392231687,0.0 -69.9629505732938,41.89281961516767,0.0 -69.96302792471725,41.892823987914205,0.0 -69.96310015992883,41.8928267425659,0.0 -69.96316235621158,41.89282769141173,0.0 -69.96321027498585,41.89282676980862,0.0 -69.96324065066298,41.89282404058172,0.0 -69.96325141319072,41.89281968973768,0.0 -69.96324182912385,41.89281401378479,0.0 -69.96321255160639,41.892807399525,0.0 -69.96316557585942,41.89280029769523,0.0 -69.96310410320824,41.892793192254224,0.0 -69.96303232291581,41.89278656740668,0.0 -69.96295512669049,41.892780874610615,0.0 -69.96287777532422,41.89277650181522,0.0 -69.96280554017905,41.892773747024165,0.0 -69.96274334395413,41.8927727979858,0.0 -69.96269542521361,41.8927737193948,0.0 -69.96266504953712,41.89277644847802,0.0 -69.96265428697673,41.89278079926732,0.0</coordinates>
                        </LinearRing>
                    </outerBoundaryIs>
                </Polygon>
            </Placemark>
            <Placemark id="218">
                <name>AZ 100 EL 5.0 [IN CURRENT MASK]</name>
                <styleUrl>#5</styleUrl>
                <Polygon id="217">
                    <outerBoundaryIs>
                        <LinearRing id="221">
                            <coordinates>-69.9626619278384,41.89273759852228,0.0 -69.96267081081201,41.89274387471935,0.0 -69.96269920240505,41.89275236341984,0.0 -69.9627451677871,41.89276248611944,0.0 -69.9628055745035,41.89277355295421,0.0 -69.96287630594422,41.89278480971859,0.0 -69.96295254188192,41.89279548926848,0.0 -69.96302908696155,41.89280486380455,0.0 -69.96310072475575,41.89281229447216,0.0 -69.96316257325749,41.89281727489694,0.0 -69.96321041758344,41.892819465689925,0.0 -69.96324099721399,41.892818717571195,0.0 -69.96325222819438,41.89281508153807,0.0 -69.96324334515373,41.89280880538579,0.0 -69.9632149534633,41.89280031681934,0.0 -69.96316898797956,41.89279019430707,0.0 -69.96310858118446,41.89277912766275,0.0 -69.9630378497091,41.892767871040895,0.0 -69.9629616137901,41.89275719154743,0.0 -69.9628850687775,41.89274781696655,0.0 -69.9628134310807,41.892740386164924,0.0 -69.96275158268064,41.89273540555279,0.0 -69.96270373843339,41.89273321456937,0.0 -69.96267315883749,41.892733962545556,0.0 -69.9626619278384,41.89273759852228,0.0</coordinates>
                        </LinearRing>
                    </outerBoundaryIs>
                </Polygon>
            </Placemark>
            <Placemark id="224">
                <name>AZ 105 EL 5.0 [IN CURRENT MASK]</name>
                <styleUrl>#5</styleUrl>
                <Polygon id="223">
                    <outerBoundaryIs>
                        <LinearRing id="227">
                            <coordinates>-69.96267459766055,41.89269505789474,0.0 -69.96268271199504,41.892701886521216,0.0 -69.96271000165562,41.89271218491787,0.0 -69.96275460690954,41.892725251253275,0.0 -69.9628134879967,41.89274019506037,0.0 -69.96288263228043,41.892755997925015,0.0 -69.96295732769882,41.892771582894206,0.0 -69.9630324838821,41.89278588787231,0.0 -69.96310297905315,41.89279793800276,0.0 -69.96316400906998,41.89280691210171,0.0 -69.96321141482362,41.89281219861709,0.0 -69.96324196567815,41.892813437299964,0.0 -69.96325357963659,41.8928105437501,0.0 -69.96324546522727,41.89280371516378,0.0 -69.96321817544126,41.89279341689392,0.0 -69.9631735700449,41.8927803507379,0.0 -69.96311468883648,41.89276540711473,0.0 -69.96304554448515,41.89274960438928,0.0 -69.96297084907094,41.892734019477274,0.0 -69.96289569296249,41.89271971445897,0.0 -69.96282519791689,41.89270766420176,0.0 -69.96276416804247,41.892698689923414,0.0 -69.96271676241011,41.8926934032241,0.0 -69.96268621162316,41.892692164402,0.0 -69.96267459766055,41.89269505789474,0.0</coordinates>
                        </LinearRing>
                    </outerBoundaryIs>
                </Polygon>
            </Placemark>
            <Placemark id="230">
                <name>AZ 110 EL 5.0 [IN CURRENT MASK]</name>
                <styleUrl>#5</styleUrl>
                <Polygon id="229">
                    <outerBoundaryIs>
                        <LinearRing id="233">
                            <coordinates>-69.96269220000877,41.89265350114291,0.0 -69.96269948395107,41.8926608302287,0.0 -69.96272546399182,41.89267285994365,0.0 -69.96276836964913,41.89268877047075,0.0 -69.96282527699123,41.89270747751703,0.0 -69.96289230789277,41.892727706210714,0.0 -69.96296489431846,41.892748077986425,0.0 -69.96303808962436,41.89276720453557,0.0 -69.96310690566334,41.892783782419,0.0 -69.96316665272109,41.8927966818931,0.0 -69.96321325911649,41.892805023896905,0.0 -69.96324354868473,41.89280823995408,0.0 -69.96325545723195,41.89280611090905,0.0 -69.96324817320928,41.89279878185838,0.0 -69.96322219301886,41.89278675226126,0.0 -69.9631792871827,41.89277084190307,0.0 -69.96312237968047,41.89275213503157,0.0 -69.96305534868043,41.892731906471674,0.0 -69.96298276224427,41.892711534752934,0.0 -69.96290956701871,41.89269240816864,0.0 -69.9628407511294,41.892675830167406,0.0 -69.96278100425053,41.892662930524374,0.0 -69.96273439801526,41.89265458834581,0.0 -69.96270410854551,41.89265137215483,0.0 -69.96269220000877,41.89265350114291,0.0</coordinates>
                        </LinearRing>
                    </outerBoundaryIs>
                </Polygon>
            </Placemark>
            <Placemark id="236">
                <name>AZ 115 EL 5.0 [IN CURRENT MASK]</name>
                <styleUrl>#5</styleUrl>
                <Polygon id="235">
                    <outerBoundaryIs>
                        <LinearRing id="239">
                            <coordinates>-69.96271460091,41.89261324453655,0.0 -69.962720999027,41.89262101830288,0.0 -69.96274547172821,41.892634687782135,0.0 -69.9627863512564,41.892653321411146,0.0 -69.96284085176025,41.89267564932327,0.0 -69.96290525913987,41.892700149891894,0.0 -69.96297518415145,41.89272515343114,0.0 -69.96304586152343,41.89274895598552,0.0 -69.96311247470139,41.89276993545329,0.0 -69.96317048409044,41.89278666212911,0.0 -69.9632159364256,41.89279799613328,0.0 -69.96324573418595,41.89280316508846,0.0 -69.96325784669072,41.89280181675152,0.0 -69.96325144849028,41.89279404301499,0.0 -69.96322697561973,41.892780373643156,0.0 -69.96318609588168,41.892761740170414,0.0 -69.9631315951837,41.89273941242153,0.0 -69.96306718767765,41.892714911979354,0.0 -69.96299726264128,41.89268990849595,0.0 -69.96292658535275,41.89266610591176,0.0 -69.96285997234412,41.89264512633658,0.0 -69.96280196316494,41.89262839950447,0.0 -69.96275651102391,41.89261706533706,0.0 -69.96272671338998,41.89261189625542,0.0 -69.96271460091,41.89261324453655,0.0</coordinates>
                        </LinearRing>
                    </outerBoundaryIs>
                </Polygon>
            </Placemark>
            <Placemark id="242">
                <name>AZ 120 EL 5.0 [IN CURRENT MASK]</name>
                <styleUrl>#5</styleUrl>
                <Polygon id="241">
                    <outerBoundaryIs>
                        <LinearRing id="245">
                            <coordinates>-69.96274162987251,41.89257459445001,0.0 -69.96274709347281,41.89258275373394,0.0 -69.96276987258703,41.89259795894421,0.0 -69.96280841487454,41.89261917386124,0.0 -69.96286009376557,41.89264495270935,0.0 -69.9629213874513,41.89267353868769,0.0 -69.96298811888337,41.89270298369735,0.0 -69.9630557404288,41.892731281104176,0.0 -69.96311964378262,41.89275650248913,0.0 -69.96317547401853,41.892776929066066,0.0 -69.96321942637476,41.8927911688117,0.0 -69.96324850554868,41.89279825132585,0.0 -69.96326072982761,41.892797693958606,0.0 -69.9632552661433,41.89278953469899,0.0 -69.96323248684521,41.89277432958467,0.0 -69.96319394432324,41.89275311480943,0.0 -69.96314226520995,41.892727336110994,0.0 -69.96308097137376,41.8926987502501,0.0 -69.9630142399033,41.89266930529422,0.0 -69.96294661844186,41.892641007863034,0.0 -69.96288271527192,41.892615786382166,0.0 -69.96282688527049,41.89259535966342,0.0 -69.96278293313651,41.89258111976811,0.0 -69.96275385411306,41.89257403713652,0.0 -69.96274162987251,41.89257459445001,0.0</coordinates>
                        </LinearRing>
                    </outerBoundaryIs>
                </Polygon>
            </Placemark>
            <Placemark id="248">
                <name>AZ 125 EL 5.0 [IN CURRENT MASK]</name>
                <styleUrl>#5</styleUrl>
                <Polygon id="247">
                    <outerBoundaryIs>
                        <LinearRing id="251">
                            <coordinates>-69.96277308118358,41.89253784503059,0.0 -69.96277756868807,41.89254632773533,0.0 -69.96279848085744,41.892562952955764,0.0 -69.96283439258119,41.89258658770225,0.0 -69.96288285655986,41.89261562129326,0.0 -69.96294057007773,41.89264807512413,0.0 -69.96300360007092,41.89268173750922,0.0 -69.96306765115463,41.89271431440755,0.0 -69.96312835834516,41.8927435857592,0.0 -69.96318158452853,41.89276755677831,0.0 -69.96322370240313,41.892784593892124,0.0 -69.96325184168109,41.89279353606289,0.0 -69.96326408470013,41.8927937739072,0.0 -69.96325959711365,41.89278529122139,0.0 -69.96323868475146,41.8927686660846,0.0 -69.96320277277574,41.89274503146409,0.0 -69.96315430855347,41.89271599800758,0.0 -69.96309659486562,41.89268354428373,0.0 -69.96303356482164,41.89264988194948,0.0 -69.96296951381993,41.89261730503223,0.0 -69.96290880682223,41.892588033596915,0.0 -69.96285558089082,41.89256406245184,0.0 -69.96281346325982,41.89254702520354,0.0 -69.96278532415184,41.892538082925725,0.0 -69.96277308118358,41.89253784503059,0.0</coordinates>
                        </LinearRing>
                    </outerBoundaryIs>
                </Polygon>
            </Placemark>
            <Placemark id="254">
                <name>AZ 130 EL 5.0 [IN CURRENT MASK]</name>
                <styleUrl>#5</styleUrl>
                <Polygon id="253">
                    <outerBoundaryIs>
                        <LinearRing id="257">
                            <coordinates>-69.96280871547538,41.89250327596006,0.0 -69.96281219273352,41.8925120175275,0.0 -69.96283107880899,41.89252993623051,0.0 -69.96286408666654,41.892555810931924,0.0 -69.96290896690138,41.89258787830275,0.0 -69.9629626610254,41.89262395299283,0.0 -69.96302150989119,41.89266157656211,0.0 -69.96308150305197,41.89269818502182,0.0 -69.96313855206522,41.8927312835673,0.0 -69.96318876911539,41.89275861659445,0.0 -69.96322873196738,41.89277832141356,0.0 -69.96325571719309,41.89278905518557,0.0 -69.96326788577561,41.892790086431226,0.0 -69.96326440843997,41.89278134487753,0.0 -69.96324552216859,41.89276342624554,0.0 -69.96321251404925,41.89273755165335,0.0 -69.96316763355685,41.89270548440071,0.0 -69.96311393924853,41.892669409806096,0.0 -69.96305509032108,41.892631786284014,0.0 -69.9629950972378,41.89259517781055,0.0 -69.96293804842045,41.892562079194086,0.0 -69.96288783163207,41.89253474605769,0.0 -69.96284786903766,41.892515041120404,0.0 -69.96282088399623,41.89250430725289,0.0 -69.96280871547538,41.89250327596006,0.0</coordinates>
                        </LinearRing>
                    </outerBoundaryIs>
                </Polygon>
            </Placemark>
            <Placemark id="260">
                <name>AZ 135 EL 5.0</name>
                <styleUrl>#5</styleUrl>
                <Polygon id="259">
                    <outerBoundaryIs>
                        <LinearRing id="263">
                            <coordinates>-69.9628482615467,41.89247115032619,0.0 -69.96285070209646,41.89248008422826,0.0 -69.96286741834884,41.89249916004232,0.0 -69.96289727113816,41.892527077777295,0.0 -69.9629382260725,41.89256193487652,0.0 -69.96298749216712,41.89260135587614,0.0 -69.96304171203835,41.89264265429188,0.0 -69.96309719069865,41.892683015700676,0.0 -69.96315014736193,41.892719689540115,0.0 -69.96319697309983,41.892750176554465,0.0 -69.96323447678934,41.89277239911327,0.0 -69.96326010258966,41.892784842796004,0.0 -69.96327210412556,41.89278665959456,0.0 -69.96326966350516,41.8927777257014,0.0 -69.96325294705974,41.89275864994568,0.0 -69.96322309400674,41.892730732302816,0.0 -69.9631821388087,41.892695875304824,0.0 -69.96313287252106,41.892656454388394,0.0 -69.96307865257916,41.892615156015516,0.0 -69.96302317398953,41.892574794597806,0.0 -69.96297021751927,41.89253812070004,0.0 -69.96292339204507,41.892507633593574,0.0 -69.96288588861924,41.892485410933546,0.0 -69.96286026301195,41.89247296716761,0.0 -69.9628482615467,41.89247115032619,0.0</coordinates>
                        </LinearRing>
                    </outerBoundaryIs>
                </Polygon>
            </Placemark>
        </Folder>
        <Folder id="265">
            <Style id="8">
                <LineStyle id="9">
                    <color>ffff0000</color>
                    <colorMode>normal</colorMode>
                    <width>2</width>
                </LineStyle>
                <PolyStyle id="10">
                    <color>23ff0000</color>
                    <colorMode>normal</colorMode>
                    <fill>1</fill>
                    <outline>1</outline>
                </PolyStyle>
            </Style>
            <name>RH = 0.51m (high_tide_min_reach_RH0.51m)</name>
            <Placemark id="267">
                <name>AZ 35 EL 5.0</name>
                <styleUrl>#8</styleUrl>
                <Polygon id="266">
                    <outerBoundaryIs>
                        <LinearRing id="270">
                            <coordinates>-69.96307541119407,41.89308724106452,0.0 -69.96308340461628,41.893084897833795,0.0 -69.96309907086214,41.893073978229715,0.0 -69.96312134229342,41.8930552264024,0.0 -69.9631487011365,41.89302992025461,0.0 -69.96317928291946,41.892999784355574,0.0 -69.96321100353595,41.89296687241533,0.0 -69.96324170127592,41.89293342732815,0.0 -69.96326928414312,41.8929017283231,0.0 -69.96329187242024,41.892873935637816,0.0 -69.96330792676589,41.892851943301174,0.0 -69.96331635311492,41.892837250057475,0.0 -69.96331657723393,41.892830857228695,0.0 -69.96330858385207,41.89283320047559,0.0 -69.96329291770108,41.89284412010816,0.0 -69.96327064639378,41.89286287196862,0.0 -69.96324328767056,41.892888178145355,0.0 -69.96321270597126,41.89291831406137,0.0 -69.96318098537974,41.8929512260021,0.0 -69.96315028759943,41.892984671073094,0.0 -69.96312270463734,41.89301637004967,0.0 -69.96310011623625,41.893044162701806,0.0 -69.96308406177074,41.89306615500951,0.0 -69.96307563533807,41.89308084823621,0.0 -69.96307541119407,41.89308724106452,0.0</coordinates>
                        </LinearRing>
                    </outerBoundaryIs>
                </Polygon>
            </Placemark>
            <Placemark id="273">
                <name>AZ 40 EL 5.0</name>
                <styleUrl>#8</styleUrl>
                <Polygon id="272">
                    <outerBoundaryIs>
                        <LinearRing id="276">
                            <coordinates>-69.96304557024013,41.89307019603546,0.0 -69.96305380759635,41.893068380321196,0.0 -69.9630706927287,41.89305851866933,0.0 -69.96309507493368,41.89304128313165,0.0 -69.96312529259143,41.893017848277466,0.0 -69.96315928640585,41.89298981114965,0.0 -69.96319473974563,41.89295908242986,0.0 -69.9632292365212,41.89292775622935,0.0 -69.96326042583813,41.8928979673788,0.0 -69.96328618220565,41.8928717459426,0.0 -69.96330475038273,41.89285087887241,0.0 -69.96331486499146,41.89283678822829,0.0 -69.96331583674703,41.89283043426663,0.0 -69.96330759942894,41.892832249999614,0.0 -69.96329071439298,41.89284211168621,0.0 -69.96326633231683,41.89285934726526,0.0 -69.96323611478581,41.89288278215642,0.0 -69.96320212106207,41.892910819306884,0.0 -69.96316666775263,41.89294154802896,0.0 -69.96313217093892,41.89297287421073,0.0 -69.9631009815256,41.893002663026586,0.0 -69.96307522502927,41.893028884421405,0.0 -69.96305665672546,41.89304975145462,0.0 -69.96304654202604,41.89306384207607,0.0 -69.96304557024013,41.89307019603546,0.0</coordinates>
                        </LinearRing>
                    </outerBoundaryIs>
                </Polygon>
            </Placemark>
            <Placemark id="279">
                <name>AZ 45 EL 5.0</name>
                <styleUrl>#8</styleUrl>
                <Polygon id="278">
                    <outerBoundaryIs>
                        <LinearRing id="282">
                            <coordinates>-69.96301783854106,41.89305127983786,0.0 -69.96302625713916,41.89305000545869,0.0 -69.9630442326496,41.893041276812426,0.0 -69.96307054006152,41.89302568873779,0.0 -69.96310338655535,41.89300430353133,0.0 -69.96314053368383,41.892978578554995,0.0 -69.96317944992205,41.89295026692053,0.0 -69.96321748318924,41.89292129801862,0.0 -69.96325204158454,41.892893646034175,0.0 -69.96328077001992,41.8928691954083,0.0 -69.96330171071295,41.89284961241573,0.0 -69.96331343660297,41.892836231609564,0.0 -69.96331514859945,41.89282996487251,0.0 -69.9633067300361,41.89283123927278,0.0 -69.96328875462065,41.892839967959986,0.0 -69.96326244733847,41.892855556084434,0.0 -69.9632296009744,41.892876941336226,0.0 -69.9631924539409,41.892902666341264,0.0 -69.96315353773744,41.89293097798011,0.0 -69.96311550443549,41.89295994686091,0.0 -69.96308094594521,41.89298759880443,0.0 -69.96305221738007,41.8930120493805,0.0 -69.96303127655729,41.89303163232775,0.0 -69.9630195505723,41.893045013105194,0.0 -69.96301783854106,41.89305127983786,0.0</coordinates>
                        </LinearRing>
                    </outerBoundaryIs>
                </Polygon>
            </Placemark>
            <Placemark id="285">
                <name>AZ 50 EL 5.0</name>
                <styleUrl>#8</styleUrl>
                <Polygon id="284">
                    <outerBoundaryIs>
                        <LinearRing id="288">
                            <coordinates>-69.96299242715224,41.89303063643702,0.0 -69.96300096292079,41.89302991309164,0.0 -69.9630198920025,41.893022383881366,0.0 -69.96304792440266,41.89300856190472,0.0 -69.96308314974686,41.892989389100784,0.0 -69.96312316747326,41.892966172059054,0.0 -69.96316525043028,41.8929404929791,0.0 -69.96320653073015,41.89291410184708,0.0 -69.96324419519169,41.892888797177385,0.0 -69.96327567705313,41.8928663034461,0.0 -69.96329883089031,41.89284815356965,0.0 -69.96331207882037,41.8928355844375,0.0 -69.96331451802837,41.89282945261873,0.0 -69.96330598229015,41.89283017598732,0.0 -69.96328705329914,41.892837705244574,0.0 -69.9632590210257,41.89285152727938,0.0 -69.96322379581032,41.892870700137074,0.0 -69.96318377818032,41.89289391721372,0.0 -69.96314169526144,41.892919596300445,0.0 -69.96310041493122,41.89294598740924,0.0 -69.96306275037901,41.892971292031966,0.0 -69.96303126839084,41.8929937857051,0.0 -69.96300811442482,41.893011935527795,0.0 -69.96299486639839,41.89302450462501,0.0 -69.96299242715224,41.89303063643702,0.0</coordinates>
                        </LinearRing>
                    </outerBoundaryIs>
                </Polygon>
            </Placemark>
            <Placemark id="291">
                <name>AZ 55 EL 5.0</name>
                <styleUrl>#8</styleUrl>
                <Polygon id="290">
                    <outerBoundaryIs>
                        <LinearRing id="294">
                            <coordinates>-69.96296952946929,41.89300842294325,0.0 -69.96297811744523,41.893008256136625,0.0 -69.96299785603428,41.89300198366415,0.0 -69.96302740007584,41.89299003297919,0.0 -69.96306473618034,41.892973218494575,0.0 -69.96310731994159,41.89295268608345,0.0 -69.96315224933711,41.89292983499158,0.0 -69.96319646249887,41.89290622248218,0.0 -69.96323694637542,41.89288345771128,0.0 -69.96327094206585,41.89286309206562,0.0 -69.96329613283199,41.89284651343689,0.0 -69.96331080197717,41.89283485163748,0.0 -69.96331394983285,41.89282890140384,0.0 -69.96330536188191,41.89282906823548,0.0 -69.96328562337649,41.89283534076062,0.0 -69.9632560794548,41.892847291511764,0.0 -69.96321874347427,41.892864106058354,0.0 -69.96317615980792,41.89288463851065,0.0 -69.96313123045272,41.89290748961184,0.0 -69.96308701726598,41.892931102096206,0.0 -69.9630465333058,41.89295386681447,0.0 -69.9630125374955,41.89297423239395,0.0 -69.96298734660537,41.89299081096068,0.0 -69.96297267736533,41.893002472718926,0.0 -69.96296952946929,41.89300842294325,0.0</coordinates>
                        </LinearRing>
                    </outerBoundaryIs>
                </Polygon>
            </Placemark>
            <Placemark id="297">
                <name>AZ 60 EL 5.0</name>
                <styleUrl>#8</styleUrl>
                <Polygon id="296">
                    <outerBoundaryIs>
                        <LinearRing id="300">
                            <coordinates>-69.9629493197563,41.892984808416216,0.0 -69.96295789457936,41.89298519941763,0.0 -69.96297829245114,41.892980231420104,0.0 -69.96300912328299,41.89297024297865,0.0 -69.96304828599374,41.8929559147817,0.0 -69.96309311169784,41.892938223265226,0.0 -69.96314054558862,41.89291837407212,0.0 -69.96318735512065,41.8928977198909,0.0 -69.9632303503036,41.89287766827252,0.0 -69.96326660109419,41.89285958570742,0.0 -69.96329363707186,41.89284470449987,0.0 -69.96330961579095,41.892834038786546,0.0 -69.96331344833719,41.89282831542292,0.0 -69.96330487353302,41.89282792444793,0.0 -69.96328447573528,41.89283289250327,0.0 -69.9632536450128,41.892842881018375,0.0 -69.96321448241741,41.89285720928509,0.0 -69.96316965680379,41.89287490084878,0.0 -69.96312222295434,41.892894750053856,0.0 -69.9630754134034,41.89291540420864,0.0 -69.96303241814643,41.89293545576922,0.0 -69.96299616724649,41.89295353826068,0.0 -69.96296913115344,41.89296841939845,0.0 -69.96295315234389,41.89297908506455,0.0 -69.9629493197563,41.892984808416216,0.0</coordinates>
                        </LinearRing>
                    </outerBoundaryIs>
                </Polygon>
            </Placemark>
            <Placemark id="303">
                <name>AZ 65 EL 5.0</name>
                <styleUrl>#8</styleUrl>
                <Polygon id="302">
                    <outerBoundaryIs>
                        <LinearRing id="306">
                            <coordinates>-69.96293195181958,41.89295997257816,0.0 -69.96294044822973,41.892960918411674,0.0 -69.96296135014234,41.89295729269825,0.0 -69.96299323312039,41.89294934251805,0.0 -69.96303392438206,41.89293760965471,0.0 -69.96308065087482,41.89292289367579,0.0 -69.96313022825707,41.89290619744563,0.0 -69.96317927790804,41.89288865878329,0.0 -69.9632244571763,41.89287147292235,0.0 -69.96326268717557,41.89285581105707,0.0 -69.96329136260415,41.89284274052568,0.0 -69.96330852928928,41.89283315207099,0.0 -69.96331301735806,41.89282769913564,0.0 -69.96330452096011,41.892826753329594,0.0 -69.9632836191097,41.89283037910524,0.0 -69.96325173622718,41.892838329365766,0.0 -69.96321104506876,41.892850062305996,0.0 -69.96316431865932,41.892864778337774,0.0 -69.96311474131814,41.89288147458259,0.0 -69.96306569165498,41.89289901321747,0.0 -69.96302051232452,41.89291619901618,0.0 -69.9629822822297,41.89293186080114,0.0 -69.96295360669787,41.892944931255656,0.0 -69.96293643992942,41.89295451965746,0.0 -69.96293195181958,41.89295997257816,0.0</coordinates>
                        </LinearRing>
                    </outerBoundaryIs>
                </Polygon>
            </Placemark>
            <Placemark id="309">
                <name>AZ 70 EL 5.0</name>
                <styleUrl>#8</styleUrl>
                <Polygon id="308">
                    <outerBoundaryIs>
                        <LinearRing id="312">
                            <coordinates>-69.96291755783713,41.89293410444614,0.0 -69.96292591117128,41.89293559791311,0.0 -69.96294715804707,41.892933342077285,0.0 -69.96297985052016,41.892927490663524,0.0 -69.96302176064466,41.89291844242748,0.0 -69.96307003230609,41.892906813983146,0.0 -69.96312137586311,41.89289339778399,0.0 -69.96317229233321,41.892879108120106,0.0 -69.96321931184362,41.89286491881126,0.0 -69.96325923009725,41.892851796841995,0.0 -69.96328932673894,41.8928406364614,0.0 -69.96330755074112,41.89283219823927,0.0 -69.96331266017549,41.89282705723232,0.0 -69.96330430684648,41.892825563793366,0.0 -69.96328306001917,41.89282781969505,0.0 -69.96325036762488,41.89283367119479,0.0 -69.96320845758837,41.89284271951396,0.0 -69.9631601860006,41.89285434801627,0.0 -69.96310884248311,41.892867764232705,0.0 -69.96305792600785,41.89288205386857,0.0 -69.96301090644897,41.89289624311158,0.0 -69.96297098811655,41.89290936499486,0.0 -69.96294089138685,41.89292052529233,0.0 -69.96292266731103,41.89292896345648,0.0 -69.96291755783713,41.89293410444614,0.0</coordinates>
                        </LinearRing>
                    </outerBoundaryIs>
                </Polygon>
            </Placemark>
            <Placemark id="315">
                <name>AZ 75 EL 5.0</name>
                <styleUrl>#8</styleUrl>
                <Polygon id="314">
                    <outerBoundaryIs>
                        <LinearRing id="318">
                            <coordinates>-69.96290624735282,41.892907400893385,0.0 -69.96291439403694,41.89290943062737,0.0 -69.9629358241732,41.89290856183692,0.0 -69.96296907732987,41.89290485372179,0.0 -69.96301188735336,41.89289855897489,0.0 -69.96306133680429,41.89289010656399,0.0 -69.96311405577814,41.89288007250069,0.0 -69.96316645156027,41.892869140587855,0.0 -69.96321495346453,41.89285805582008,0.0 -69.96325625616961,41.89284757361282,0.0 -69.9632875449704,41.89283840832021,0.0 -69.9633066875938,41.89283118455061,0.0 -69.96331237950783,41.892826394598224,0.0 -69.96330423282166,41.89282436489236,0.0 -69.96328280271867,41.89282523375133,0.0 -69.96324954962165,41.89282894195696,0.0 -69.96320673966824,41.89283523679212,0.0 -69.96315729027904,41.892843689265405,0.0 -69.96310457134201,41.89285372334848,0.0 -69.96305217556193,41.89286465523319,0.0 -69.96300367362441,41.89287573993248,0.0 -69.96296237085966,41.89288622204923,0.0 -69.9629310819888,41.89289538725357,0.0 -69.96291193930368,41.89290261096078,0.0 -69.96290624735282,41.892907400893385,0.0</coordinates>
                        </LinearRing>
                    </outerBoundaryIs>
                </Polygon>
            </Placemark>
            <Placemark id="321">
                <name>AZ 80 EL 5.0</name>
                <styleUrl>#8</styleUrl>
                <Polygon id="320">
                    <outerBoundaryIs>
                        <LinearRing id="324">
                            <coordinates>-69.96289810644274,41.89288006515097,0.0 -69.9629059844757,41.8928826157042,0.0 -69.96292743477538,41.892883140570596,0.0 -69.96296099553759,41.89288160397436,0.0 -69.96300437964798,41.89287811062262,0.0 -69.96305463054614,41.89287289857232,0.0 -69.96310832371161,41.89286632300948,0.0 -69.9631618000406,41.89285883204565,0.0 -69.96321141520873,41.892850936180395,0.0 -69.963253788026,41.89284317351091,0.0 -69.96328603085881,41.892836073059634,0.0 -69.96330594641637,41.892830118719786,0.0 -69.96331217749115,41.89282571627643,0.0 -69.96330429944899,41.89282316575093,0.0 -69.96328284916636,41.892822640954684,0.0 -69.96324928844287,41.89282417764464,0.0 -69.9632059043825,41.89282767108855,0.0 -69.96315565353227,41.892832883204804,0.0 -69.96310196039978,41.892839458789695,0.0 -69.96304848408,41.89284694972576,0.0 -69.96299886889483,41.89285484552089,0.0 -69.96295649603883,41.892862608096664,0.0 -69.96292425315599,41.89286970845576,0.0 -69.9629043375505,41.89287566272964,0.0 -69.96289810644274,41.89288006515097,0.0</coordinates>
                        </LinearRing>
                    </outerBoundaryIs>
                </Polygon>
            </Placemark>
            <Placemark id="327">
                <name>AZ 85 EL 5.0</name>
                <styleUrl>#8</styleUrl>
                <Polygon id="326">
                    <outerBoundaryIs>
                        <LinearRing id="330">
                            <coordinates>-69.96289319706023,41.892852305261066,0.0 -69.96290074648566,41.89285535722207,0.0 -69.96292205369866,41.89285727175018,0.0 -69.96295566664783,41.89285791836643,0.0 -69.96299929466458,41.89285725299544,0.0 -69.96304996456884,41.892855320971684,0.0 -69.96310422328708,41.892852253952526,0.0 -69.96315837317452,41.892848260947865,0.0 -69.96320872400422,41.89284361407706,0.0 -69.96325184445035,41.89283863002374,0.0 -69.96328479592746,41.892833648452424,0.0 -69.96330533284966,41.89282900885845,0.0 -69.96331205566291,41.89282502742934,0.0 -69.9633045062214,41.89282197549527,0.0 -69.96328319900873,41.89282006103786,0.0 -69.96324958607616,41.89281941451713,0.0 -69.96320595808785,41.89282007998285,0.0 -69.96315528821629,41.89282201207518,0.0 -69.96310102952617,41.892825079118374,0.0 -69.9630468796548,41.8928290720961,0.0 -69.9629965288248,41.892833718896206,0.0 -69.96295340836205,41.89283870285403,0.0 -69.9629204568565,41.89284368433059,0.0 -69.96289991990162,41.892848323855986,0.0 -69.96289319706023,41.892852305261066,0.0</coordinates>
                        </LinearRing>
                    </outerBoundaryIs>
                </Polygon>
            </Placemark>
            <Placemark id="333">
                <name>AZ 90 EL 5.0</name>
                <styleUrl>#8</styleUrl>
                <Polygon id="332">
                    <outerBoundaryIs>
                        <LinearRing id="336">
                            <coordinates>-69.9628915565645,41.89282433249363,0.0 -69.96289871992711,41.89282786263488,0.0 -69.9629197218927,41.89283115225342,0.0 -69.9629531312137,41.89283397716016,0.0 -69.96299667110065,41.892836144832806,0.0 -69.96304737438165,41.89283750753848,0.0 -69.96310178571022,41.892837972404024,0.0 -69.96315619704201,41.89283750774705,0.0 -69.96320690033242,41.89283614523574,0.0 -69.96325044023439,41.89283397773,0.0 -69.9632838495749,41.89283115295132,0.0 -69.96330485156327,41.89282786341329,0.0 -69.96331201495029,41.8928243332995,0.0 -69.96330485156524,41.89282080318394,0.0 -69.9632838495832,41.89281751363557,0.0 -69.96325044025622,41.8928146888247,0.0 -69.96320690037527,41.8928125212479,0.0 -69.9631561971107,41.892811158612396,0.0 -69.96310178580457,41.89281069377254,0.0 -69.96304737449523,41.89281115840382,0.0 -69.96299667122125,41.89281252084497,0.0 -69.9629531313253,41.89281468825486,0.0 -69.96291972197876,41.89281751293768,0.0 -69.96289871997398,41.89282080240553,0.0 -69.9628915565645,41.89282433249363,0.0</coordinates>
                        </LinearRing>
                    </outerBoundaryIs>
                </Polygon>
            </Placemark>
            <Placemark id="339">
                <name>AZ 95 EL 5.0</name>
                <styleUrl>#8</styleUrl>
                <Polygon id="338">
                    <outerBoundaryIs>
                        <LinearRing id="342">
                            <coordinates>-69.96289319743643,41.89279635973845,0.0 -69.96289992021923,41.89280034119325,0.0 -69.96292045710024,41.89280498086564,0.0 -69.96295340852822,41.89280996256277,0.0 -69.96299652892067,41.892814946780774,0.0 -69.96304687969574,41.89281959384386,0.0 -69.96310102953136,41.89282358705529,0.0 -69.9631552882041,41.89282665428164,0.0 -69.96320595807231,41.892828586498894,0.0 -69.96324958606489,41.89282925203648,0.0 -69.96328319900344,41.8928286055486,0.0 -69.96330450622007,41.892826691101845,0.0 -69.96331205566314,41.892823639169684,0.0 -69.9633053328522,41.89281965773892,0.0 -69.96328479593852,41.8928150181351,0.0 -69.96325184448209,41.892810036532715,0.0 -69.96320872407304,41.89280505241022,0.0 -69.96315837329765,41.89280040541783,0.0 -69.9631042234781,41.89279641223334,0.0 -69.96304996483349,41.89279334498295,0.0 -69.96299929499797,41.89279141269712,0.0 -69.96295566703384,41.892790747064794,0.0 -69.9629220541119,41.89279139345717,0.0 -69.96290074689558,41.892793307833216,0.0 -69.96289319743643,41.89279635973845,0.0</coordinates>
                        </LinearRing>
                    </outerBoundaryIs>
                </Polygon>
            </Placemark>
            <Placemark id="345">
                <name>AZ 100 EL 5.0 [IN CURRENT MASK]</name>
                <styleUrl>#8</styleUrl>
                <Polygon id="344">
                    <outerBoundaryIs>
                        <LinearRing id="348">
                            <coordinates>-69.96289810718372,41.89276859988494,0.0 -69.96290433822294,41.89277300235183,0.0 -69.96292425372214,41.89277895676685,0.0 -69.96295649647773,41.89278605733984,0.0 -69.96299886920423,41.892793820169295,0.0 -69.96304848427421,41.89280171622184,0.0 -69.96310196050433,41.89280920738754,0.0 -69.96315565357699,41.89281578315307,0.0 -69.96320590439471,41.89282099539308,0.0 -69.96324928844251,41.89282448890861,0.0 -69.96328284916424,41.89282602563153,0.0 -69.96330429944831,41.89282550084611,0.0 -69.9633121774916,41.89282295032261,0.0 -69.96330594641941,41.89281854787775,0.0 -69.9632860308723,41.8928125935287,0.0 -69.96325378806667,41.89280549304788,0.0 -69.96321141530144,41.89279773031214,0.0 -69.96316180021442,41.89278983432972,0.0 -69.9631083239935,41.892782343191776,0.0 -69.96305463095382,41.8927757674042,0.0 -69.96300438018403,41.89277055509825,0.0 -69.96296099618625,41.89276706149056,0.0 -69.96292743550325,41.89276552467392,0.0 -69.96290598523622,41.8927660493892,0.0 -69.96289810718372,41.89276859988494,0.0</coordinates>
                        </LinearRing>
                    </outerBoundaryIs>
                </Polygon>
            </Placemark>
            <Placemark id="351">
                <name>AZ 105 EL 5.0 [IN CURRENT MASK]</name>
                <styleUrl>#8</styleUrl>
                <Polygon id="350">
                    <outerBoundaryIs>
                        <LinearRing id="354">
                            <coordinates>-69.96290624843607,41.892741264201916,0.0 -69.96291194031052,41.89274605417537,0.0 -69.96293108286012,41.892753278015846,0.0 -69.96296237155796,41.89276244342431,0.0 -69.96300367413795,41.8927729257845,0.0 -69.9630521759035,41.89278401073186,0.0 -69.96310457154276,41.892794942838705,0.0 -69.9631572903793,41.8928049770972,0.0 -69.96320673970784,41.892813429691195,0.0 -69.96324954963221,41.89281972459661,0.0 -69.96328280271979,41.89282343283486,0.0 -69.96330423282167,41.89282430170466,0.0 -69.9633123795085,41.89282227200084,0.0 -69.96330668759722,41.89281748204715,0.0 -69.96328754498589,41.892810258269066,0.0 -69.96325625621799,41.89280109294888,0.0 -69.96321495357832,41.892790610679185,0.0 -69.96316645177951,41.892779525800314,0.0 -69.9631140561423,41.892768593721605,0.0 -69.9630613373426,41.89275855944334,0.0 -69.96301188807577,41.89275010678697,0.0 -69.96296907822149,41.89274381179328,0.0 -69.96293582519357,41.89274010346453,0.0 -69.96291439512495,41.892739234526225,0.0 -69.96290624843607,41.892741264201916,0.0</coordinates>
                        </LinearRing>
                    </outerBoundaryIs>
                </Polygon>
            </Placemark>
            <Placemark id="357">
                <name>AZ 110 EL 5.0 [IN CURRENT MASK]</name>
                <styleUrl>#8</styleUrl>
                <Polygon id="356">
                    <outerBoundaryIs>
                        <LinearRing id="360">
                            <coordinates>-69.96291755922972,41.892714560729786,0.0 -69.96292266862167,41.89271970175514,0.0 -69.96294089253689,41.892728140042905,0.0 -69.96297098905303,41.892739300531915,0.0 -69.96301090715106,41.89275242264498,0.0 -69.96305792648641,41.8927666121232,0.0 -69.96310884277396,41.89278090197048,0.0 -69.96316018615333,41.89279431835456,0.0 -69.96320845765415,41.89280594697279,0.0 -69.96325036764603,41.89281499535981,0.0 -69.9632830600235,41.89282084689131,0.0 -69.96330430684719,41.892823102803675,0.0 -69.96331266017634,41.892821609366806,0.0 -69.96330755074486,41.892816468358724,0.0 -69.963289326756,41.89280803012893,0.0 -69.96325923015185,41.89279686972305,0.0 -69.96321931197502,41.89278374769598,0.0 -69.9631722925912,41.8927695582836,0.0 -69.9631213762985,41.89275526846434,0.0 -69.96307003295867,41.89274185206296,0.0 -69.96302176153151,41.89273022338677,0.0 -69.96297985162762,41.89272117491664,0.0 -69.96294715932895,41.892715323299136,0.0 -69.96292591255373,41.89271306732093,0.0 -69.96291755922972,41.892714560729786,0.0</coordinates>
                        </LinearRing>
                    </outerBoundaryIs>
                </Polygon>
            </Placemark>
            <Placemark id="363">
                <name>AZ 115 EL 5.0 [IN CURRENT MASK]</name>
                <styleUrl>#8</styleUrl>
                <Polygon id="362">
                    <outerBoundaryIs>
                        <LinearRing id="366">
                            <coordinates>-69.96293195347921,41.892688692697156,0.0 -69.96293644150403,41.89269414564811,0.0 -69.96295360809168,41.892703734162424,0.0 -69.96298228337591,41.89271680479343,0.0 -69.9630205131938,41.89273246679154,0.0 -69.96306569225598,41.89274965280943,0.0 -69.96311474169025,41.89276719164217,0.0 -69.96316431885992,41.89278388804456,0.0 -69.96321104515873,41.89279860418582,0.0 -69.96325173625829,41.892810337190525,0.0 -69.9632836191171,41.8928182874815,0.0 -69.96330452096149,41.892821913267525,0.0 -69.96331301735908,41.89282096746354,0.0 -69.9633085292932,41.89281551452724,0.0 -69.96329136262223,41.8928059260658,0.0 -69.96326268723473,41.89279285551167,0.0 -69.96322445732132,41.89277719359389,0.0 -69.96317927819693,41.89276000763822,0.0 -69.96313022875047,41.89274246883294,0.0 -69.96308065162185,41.8927257724159,0.0 -69.96303392540638,41.89271105622177,0.0 -69.96299323441006,41.89269932314018,0.0 -69.96296135164678,41.8926913727689,0.0 -69.96294044986459,41.89268774692062,0.0 -69.96293195347921,41.892688692697156,0.0</coordinates>
                        </LinearRing>
                    </outerBoundaryIs>
                </Polygon>
            </Placemark>
            <Placemark id="369">
                <name>AZ 120 EL 5.0 [IN CURRENT MASK]</name>
                <styleUrl>#8</styleUrl>
                <Polygon id="368">
                    <outerBoundaryIs>
                        <LinearRing id="372">
                            <coordinates>-69.96294932163254,41.89266385697423,0.0 -69.96295315413462,41.892669580350606,0.0 -69.96296913274867,41.89268024611695,0.0 -69.96299616856759,41.89269512741425,0.0 -69.96303241915649,41.89271321009971,0.0 -69.96307541410862,41.89273326186081,0.0 -69.9631222233964,41.892753916197435,0.0 -69.96316965704612,41.89277376554799,0.0 -69.96321448252883,41.892791457213285,0.0 -69.9632536450529,41.892805785540254,0.0 -69.96328447574552,41.89281577408404,0.0 -69.96330487353502,41.8928207421493,0.0 -69.96331344833834,41.89282035117634,0.0 -69.96330961579493,41.89281462781196,0.0 -69.9632936370904,41.89280396209279,0.0 -69.96326660115612,41.89278908086528,0.0 -69.96323035045785,41.89277099825347,0.0 -69.9631873554317,41.89275094655015,0.0 -69.96314054612503,41.89273029223999,0.0 -69.96309311251663,41.892710442877444,0.0 -69.9630482871244,41.89269275116496,0.0 -69.9630091247157,41.89267842276822,0.0 -69.96297829413243,41.89266843415077,0.0 -69.96295789641698,41.89266346602772,0.0 -69.96294932163254,41.89266385697423,0.0</coordinates>
                        </LinearRing>
                    </outerBoundaryIs>
                </Polygon>
            </Placemark>
            <Placemark id="375">
                <name>AZ 125 EL 5.0 [IN CURRENT MASK]</name>
                <styleUrl>#8</styleUrl>
                <Polygon id="374">
                    <outerBoundaryIs>
                        <LinearRing id="378">
                            <coordinates>-69.96296953150512,41.89264024257459,0.0 -69.96297267931779,41.89264619281812,0.0 -69.96298734835356,41.892657854663604,0.0 -69.96301253895136,41.892674433371404,0.0 -69.96304653442597,41.892694799123824,0.0 -69.96308701805394,41.89271756402187,0.0 -69.9631312309513,41.892741176670086,0.0 -69.96317616008464,41.89276402790302,0.0 -69.96321874360376,41.89278456044787,0.0 -69.9632560795027,41.89280137504972,0.0 -69.96328562338928,41.89281332582745,0.0 -69.96330536188448,41.892819598361896,0.0 -69.9633139498341,41.892819765195505,0.0 -69.9633108019811,41.89281381496128,0.0 -69.96329613285045,41.89280215315698,0.0 -69.96327094212867,41.892785574511144,0.0 -69.9632369465342,41.89276520882491,0.0 -69.96319646282258,41.89274244397953,0.0 -69.96315224990023,41.892718831356326,0.0 -69.96310732080724,41.89269598011406,0.0 -69.96306473738301,41.89267544752807,0.0 -69.96302740160804,41.892658632864226,0.0 -69.96299785784133,41.89264668202033,0.0 -69.96297811942976,41.892640409433206,0.0 -69.96296953150512,41.89264024257459,0.0</coordinates>
                        </LinearRing>
                    </outerBoundaryIs>
                </Polygon>
            </Placemark>
            <Placemark id="381">
                <name>AZ 130 EL 5.0 [IN CURRENT MASK]</name>
                <styleUrl>#8</styleUrl>
                <Polygon id="380">
                    <outerBoundaryIs>
                        <LinearRing id="384">
                            <coordinates>-69.9629924292858,41.89261802921659,0.0 -69.96299486845325,41.89262416104253,0.0 -69.96300811627285,41.89263673021359,0.0 -69.9630312699372,41.89265488015802,0.0 -69.96306275157525,41.89267737398175,0.0 -69.96310041577802,41.89270267876206,0.0 -69.9631416958014,41.892729070015285,0.0 -69.96318377848304,41.89275474921881,0.0 -69.96322379595394,41.89277796637804,0.0 -69.96325902107995,41.892797139285435,0.0 -69.96328705331406,41.89281096134439,0.0 -69.96330598229322,41.892818490610246,0.0 -69.96331451802969,41.892819213980694,0.0 -69.9633120788241,41.89281308216151,0.0 -69.96329883090813,41.89280051302539,0.0 -69.96327567711494,41.892782363134714,0.0 -69.96324419535017,41.89275986936912,0.0 -69.96320653105673,41.8927345646358,0.0 -69.963165251003,41.8927081734058,0.0 -69.96312316835949,41.89268249419551,0.0 -69.96308315098499,41.89265927700135,0.0 -69.9630479259878,41.89264010404021,0.0 -69.9630198938804,41.89262628192309,0.0 -69.96300096499193,41.89261875261025,0.0 -69.9629924292858,41.89261802921659,0.0</coordinates>
                        </LinearRing>
                    </outerBoundaryIs>
                </Polygon>
            </Placemark>
            <Placemark id="387">
                <name>AZ 135 EL 5.0</name>
                <styleUrl>#8</styleUrl>
                <Polygon id="386">
                    <outerBoundaryIs>
                        <LinearRing id="390">
                            <coordinates>-69.96301784070755,41.892597385955774,0.0 -69.96301955266712,41.89260365269747,0.0 -69.963031278449,41.89261703353541,0.0 -69.96305221896999,41.89263661658474,0.0 -69.96308094718117,41.892661067288486,0.0 -69.96311550531537,41.89268871936661,0.0 -69.96315353830236,41.8927176883716,0.0 -69.9631924542604,41.89274600011152,0.0 -69.96322960112778,41.89277172518856,0.0 -69.9632624473974,41.892793110484064,0.0 -69.96328875463728,41.89280869863001,0.0 -69.96330673003956,41.89281742732499,0.0 -69.96331514860078,41.89281870172699,0.0 -69.96331343660644,41.89281243498967,0.0 -69.96330171072958,41.89279905418044,0.0 -69.96328077007884,41.89277947117644,0.0 -69.96325204173792,41.89275502052249,0.0 -69.96321748350873,41.8927273684853,0.0 -69.96317945048698,41.892698399501406,0.0 -69.9631405345637,41.89267008775709,0.0 -69.9631033877913,41.89264436265137,0.0 -69.96307054165145,41.89262297731054,0.0 -69.9630442345413,41.89260738911478,0.0 -69.963026259234,41.89259866037886,0.0 -69.96301784070755,41.892597385955774,0.0</coordinates>
                        </LinearRing>
                    </outerBoundaryIs>
                </Polygon>
            </Placemark>
        </Folder>
        <Placemark id="393">
            <name>USGS Marconi GNSS station</name>
            <styleUrl>#394</styleUrl>
            <Point id="392">
                <coordinates>-69.9633227139,41.8928243333,0.0</coordinates>
            </Point>
        </Placemark>
        <Placemark id="398">
            <name>Confirmed true bearing to water (83.06 deg, 71.78m)</name>
            <styleUrl>#399</styleUrl>
            <LineString id="397">
                <coordinates>-69.9633227139,41.8928243333,0.0 -69.96246187627813,41.89290233298396,0.0</coordinates>
            </LineString>
        </Placemark>
    </Document>
</kml>
