<?xml version="1.0" encoding="UTF-8"?>
<kml xmlns="http://www.opengis.net/kml/2.2">
<Document>
<name>Marconi physically screened GNSS-R tracks</name>
<Placemark>
<name>PRN 13 Setting Az 38.7°</name>
<Style><LineStyle><width>3</width></LineStyle></Style>
<Polygon><outerBoundaryIs><LinearRing><coordinates>-69.9621878,41.8939059,0 -69.9621926,41.8939074,0 -69.9621992,41.8939072,0 -69.9622074,41.8939054,0 -69.9622172,41.8939019,0 -69.9622285,41.8938968,0 -69.9622412,41.8938901,0 -69.9622553,41.8938818,0 -69.9622706,41.8938721,0 -69.9622870,41.8938610,0 -69.9623044,41.8938486,0 -69.9623226,41.8938349,0 -69.9623416,41.8938201,0 -69.9623611,41.8938044,0 -69.9623810,41.8937877,0 -69.9624012,41.8937703,0 -69.9624216,41.8937522,0 -69.9624418,41.8937337,0 -69.9624619,41.8937148,0 -69.9624817,41.8936957,0 -69.9625009,41.8936766,0 -69.9625195,41.8936575,0 -69.9625374,41.8936387,0 -69.9625543,41.8936203,0 -69.9625701,41.8936023,0 -69.9625848,41.8935851,0 -69.9625982,41.8935686,0 -69.9626102,41.8935530,0 -69.9626207,41.8935384,0 -69.9626297,41.8935250,0 -69.9626371,41.8935128,0 -69.9626427,41.8935020,0 -69.9626467,41.8934926,0 -69.9626489,41.8934846,0 -69.9626493,41.8934783,0 -69.9626480,41.8934735,0 -69.9626449,41.8934703,0 -69.9626400,41.8934688,0 -69.9626335,41.8934690,0 -69.9626253,41.8934708,0 -69.9626155,41.8934743,0 -69.9626042,41.8934794,0 -69.9625915,41.8934861,0 -69.9625774,41.8934944,0 -69.9625621,41.8935041,0 -69.9625457,41.8935152,0 -69.9625283,41.8935276,0 -69.9625101,41.8935413,0 -69.9624911,41.8935561,0 -69.9624716,41.8935719,0 -69.9624517,41.8935885,0 -69.9624314,41.8936059,0 -69.9624111,41.8936240,0 -69.9623908,41.8936425,0 -69.9623707,41.8936614,0 -69.9623510,41.8936805,0 -69.9623317,41.8936996,0 -69.9623131,41.8937187,0 -69.9622953,41.8937375,0 -69.9622784,41.8937559,0 -69.9622626,41.8937739,0 -69.9622479,41.8937912,0 -69.9622345,41.8938077,0 -69.9622225,41.8938232,0 -69.9622119,41.8938378,0 -69.9622030,41.8938512,0 -69.9621956,41.8938634,0 -69.9621899,41.8938742,0 -69.9621860,41.8938836,0 -69.9621838,41.8938916,0 -69.9621833,41.8938980,0 -69.9621847,41.8939028,0 -69.9621878,41.8939059,0</coordinates></LinearRing></outerBoundaryIs></Polygon>
</Placemark>
<Placemark>
<name>PRN 4 Rising Az 96.3°</name>
<Style><LineStyle><width>3</width></LineStyle></Style>
<Polygon><outerBoundaryIs><LinearRing><coordinates>-69.9615220,41.8926911,0 -69.9615229,41.8926949,0 -69.9615266,41.8926989,0 -69.9615330,41.8927030,0 -69.9615421,41.8927073,0 -69.9615539,41.8927116,0 -69.9615681,41.8927160,0 -69.9615848,41.8927204,0 -69.9616038,41.8927248,0 -69.9616250,41.8927292,0 -69.9616482,41.8927334,0 -69.9616731,41.8927375,0 -69.9616997,41.8927415,0 -69.9617278,41.8927454,0 -69.9617570,41.8927490,0 -69.9617873,41.8927523,0 -69.9618182,41.8927554,0 -69.9618498,41.8927583,0 -69.9618816,41.8927608,0 -69.9619134,41.8927630,0 -69.9619451,41.8927648,0 -69.9619763,41.8927663,0 -69.9620068,41.8927674,0 -69.9620365,41.8927682,0 -69.9620650,41.8927686,0 -69.9620921,41.8927686,0 -69.9621177,41.8927682,0 -69.9621415,41.8927674,0 -69.9621634,41.8927662,0 -69.9621832,41.8927647,0 -69.9622007,41.8927628,0 -69.9622159,41.8927606,0 -69.9622285,41.8927581,0 -69.9622386,41.8927552,0 -69.9622459,41.8927521,0 -69.9622506,41.8927487,0 -69.9622525,41.8927451,0 -69.9622516,41.8927413,0 -69.9622479,41.8927373,0 -69.9622415,41.8927332,0 -69.9622324,41.8927289,0 -69.9622206,41.8927245,0 -69.9622064,41.8927202,0 -69.9621897,41.8927157,0 -69.9621707,41.8927114,0 -69.9621495,41.8927070,0 -69.9621263,41.8927028,0 -69.9621014,41.8926986,0 -69.9620748,41.8926946,0 -69.9620467,41.8926908,0 -69.9620175,41.8926872,0 -69.9619872,41.8926839,0 -69.9619562,41.8926807,0 -69.9619247,41.8926779,0 -69.9618929,41.8926754,0 -69.9618611,41.8926732,0 -69.9618294,41.8926714,0 -69.9617982,41.8926699,0 -69.9617677,41.8926687,0 -69.9617380,41.8926680,0 -69.9617095,41.8926676,0 -69.9616824,41.8926676,0 -69.9616568,41.8926680,0 -69.9616330,41.8926688,0 -69.9616111,41.8926699,0 -69.9615913,41.8926715,0 -69.9615738,41.8926733,0 -69.9615586,41.8926755,0 -69.9615460,41.8926781,0 -69.9615359,41.8926809,0 -69.9615286,41.8926841,0 -69.9615239,41.8926874,0 -69.9615220,41.8926911,0</coordinates></LinearRing></outerBoundaryIs></Polygon>
</Placemark>
<Placemark>
<name>GNSS-R station</name>
<Point><coordinates>-69.9633227,41.8928243,0</coordinates></Point>
</Placemark>
</Document>
</kml>
